{
 "cells": [
  {
   "cell_type": "code",
   "execution_count": 2,
   "id": "d53e7fc7-eed9-446e-807f-3c90cafeb383",
   "metadata": {},
   "outputs": [],
   "source": [
    "import pandas as pd"
   ]
  },
  {
   "cell_type": "code",
   "execution_count": 3,
   "id": "b98e56ef-6620-405f-b7f5-0198f7429eb7",
   "metadata": {},
   "outputs": [],
   "source": [
    "import numpy as np"
   ]
  },
  {
   "cell_type": "code",
   "execution_count": 10,
   "id": "08e22712-c2ed-4b51-bb97-56b943f67819",
   "metadata": {},
   "outputs": [],
   "source": [
    "df = pd.read_csv(r'C:\\Users\\user\\Documents\\lux bootcamp\\task 1\\1. Weather Data.csv')"
   ]
  },
  {
   "cell_type": "code",
   "execution_count": 11,
   "id": "b070a848-15f6-470c-8f0a-ad54293228ee",
   "metadata": {
    "scrolled": true
   },
   "outputs": [
    {
     "data": {
      "text/html": [
       "<div>\n",
       "<style scoped>\n",
       "    .dataframe tbody tr th:only-of-type {\n",
       "        vertical-align: middle;\n",
       "    }\n",
       "\n",
       "    .dataframe tbody tr th {\n",
       "        vertical-align: top;\n",
       "    }\n",
       "\n",
       "    .dataframe thead th {\n",
       "        text-align: right;\n",
       "    }\n",
       "</style>\n",
       "<table border=\"1\" class=\"dataframe\">\n",
       "  <thead>\n",
       "    <tr style=\"text-align: right;\">\n",
       "      <th></th>\n",
       "      <th>Date/Time</th>\n",
       "      <th>Temp_C</th>\n",
       "      <th>Dew Point Temp_C</th>\n",
       "      <th>Rel Hum_%</th>\n",
       "      <th>Wind Speed_km/h</th>\n",
       "      <th>Visibility_km</th>\n",
       "      <th>Press_kPa</th>\n",
       "      <th>Weather</th>\n",
       "    </tr>\n",
       "  </thead>\n",
       "  <tbody>\n",
       "    <tr>\n",
       "      <th>0</th>\n",
       "      <td>1/1/2012 0:00</td>\n",
       "      <td>-1.8</td>\n",
       "      <td>-3.9</td>\n",
       "      <td>86</td>\n",
       "      <td>4</td>\n",
       "      <td>8.0</td>\n",
       "      <td>101.24</td>\n",
       "      <td>Fog</td>\n",
       "    </tr>\n",
       "    <tr>\n",
       "      <th>1</th>\n",
       "      <td>1/1/2012 1:00</td>\n",
       "      <td>-1.8</td>\n",
       "      <td>-3.7</td>\n",
       "      <td>87</td>\n",
       "      <td>4</td>\n",
       "      <td>8.0</td>\n",
       "      <td>101.24</td>\n",
       "      <td>Fog</td>\n",
       "    </tr>\n",
       "    <tr>\n",
       "      <th>2</th>\n",
       "      <td>1/1/2012 2:00</td>\n",
       "      <td>-1.8</td>\n",
       "      <td>-3.4</td>\n",
       "      <td>89</td>\n",
       "      <td>7</td>\n",
       "      <td>4.0</td>\n",
       "      <td>101.26</td>\n",
       "      <td>Freezing Drizzle,Fog</td>\n",
       "    </tr>\n",
       "    <tr>\n",
       "      <th>3</th>\n",
       "      <td>1/1/2012 3:00</td>\n",
       "      <td>-1.5</td>\n",
       "      <td>-3.2</td>\n",
       "      <td>88</td>\n",
       "      <td>6</td>\n",
       "      <td>4.0</td>\n",
       "      <td>101.27</td>\n",
       "      <td>Freezing Drizzle,Fog</td>\n",
       "    </tr>\n",
       "    <tr>\n",
       "      <th>4</th>\n",
       "      <td>1/1/2012 4:00</td>\n",
       "      <td>-1.5</td>\n",
       "      <td>-3.3</td>\n",
       "      <td>88</td>\n",
       "      <td>7</td>\n",
       "      <td>4.8</td>\n",
       "      <td>101.23</td>\n",
       "      <td>Fog</td>\n",
       "    </tr>\n",
       "  </tbody>\n",
       "</table>\n",
       "</div>"
      ],
      "text/plain": [
       "       Date/Time  Temp_C  Dew Point Temp_C  Rel Hum_%  Wind Speed_km/h  \\\n",
       "0  1/1/2012 0:00    -1.8              -3.9         86                4   \n",
       "1  1/1/2012 1:00    -1.8              -3.7         87                4   \n",
       "2  1/1/2012 2:00    -1.8              -3.4         89                7   \n",
       "3  1/1/2012 3:00    -1.5              -3.2         88                6   \n",
       "4  1/1/2012 4:00    -1.5              -3.3         88                7   \n",
       "\n",
       "   Visibility_km  Press_kPa               Weather  \n",
       "0            8.0     101.24                   Fog  \n",
       "1            8.0     101.24                   Fog  \n",
       "2            4.0     101.26  Freezing Drizzle,Fog  \n",
       "3            4.0     101.27  Freezing Drizzle,Fog  \n",
       "4            4.8     101.23                   Fog  "
      ]
     },
     "execution_count": 11,
     "metadata": {},
     "output_type": "execute_result"
    }
   ],
   "source": [
    "df.head()"
   ]
  },
  {
   "cell_type": "code",
   "execution_count": 12,
   "id": "8df105ce-d175-4273-851e-c43447ba9840",
   "metadata": {},
   "outputs": [
    {
     "data": {
      "text/plain": [
       "Date/Time           0\n",
       "Temp_C              0\n",
       "Dew Point Temp_C    0\n",
       "Rel Hum_%           0\n",
       "Wind Speed_km/h     0\n",
       "Visibility_km       0\n",
       "Press_kPa           0\n",
       "Weather             0\n",
       "dtype: int64"
      ]
     },
     "execution_count": 12,
     "metadata": {},
     "output_type": "execute_result"
    }
   ],
   "source": [
    "#Check if there are any NULL values present in the dataset.\n",
    "df.isnull().sum()"
   ]
  },
  {
   "cell_type": "code",
   "execution_count": 15,
   "id": "a9a82ae0-2a83-4959-ac32-685c858b1bc8",
   "metadata": {},
   "outputs": [],
   "source": [
    "#Find all records where the weather was exactly clear.\n",
    "clear_weather = df[df['Weather'] == 'Clear']"
   ]
  },
  {
   "cell_type": "code",
   "execution_count": 17,
   "id": "0de4b5db-61b4-4c9d-b34d-2120a41eabc5",
   "metadata": {},
   "outputs": [
    {
     "name": "stdout",
     "output_type": "stream",
     "text": [
      "             Date/Time  Temp_C  ...  Press_kPa  Weather\n",
      "67      1/3/2012 19:00   -16.9  ...     101.74    Clear\n",
      "114     1/5/2012 18:00    -7.1  ...     100.71    Clear\n",
      "115     1/5/2012 19:00    -9.2  ...     100.80    Clear\n",
      "116     1/5/2012 20:00    -9.8  ...     100.83    Clear\n",
      "117     1/5/2012 21:00    -9.0  ...     100.83    Clear\n",
      "241     1/11/2012 1:00   -10.7  ...     101.49    Clear\n",
      "242     1/11/2012 2:00   -12.0  ...     101.57    Clear\n",
      "243     1/11/2012 3:00   -12.7  ...     101.64    Clear\n",
      "244     1/11/2012 4:00   -13.4  ...     101.66    Clear\n",
      "344     1/15/2012 8:00   -23.3  ...     102.45    Clear\n",
      "351    1/15/2012 15:00   -15.4  ...     102.71    Clear\n",
      "352    1/15/2012 16:00   -15.1  ...     102.79    Clear\n",
      "353    1/15/2012 17:00   -16.2  ...     102.85    Clear\n",
      "354    1/15/2012 18:00   -16.3  ...     102.89    Clear\n",
      "355    1/15/2012 19:00   -16.3  ...     102.94    Clear\n",
      "356    1/15/2012 20:00   -16.7  ...     102.98    Clear\n",
      "357    1/15/2012 21:00   -16.9  ...     103.02    Clear\n",
      "358    1/15/2012 22:00   -16.9  ...     103.07    Clear\n",
      "359    1/15/2012 23:00   -16.9  ...     103.09    Clear\n",
      "360     1/16/2012 0:00   -17.1  ...     103.09    Clear\n",
      "361     1/16/2012 1:00   -17.8  ...     103.05    Clear\n",
      "362     1/16/2012 2:00   -18.5  ...     103.08    Clear\n",
      "363     1/16/2012 3:00   -19.2  ...     103.07    Clear\n",
      "364     1/16/2012 4:00   -18.7  ...     103.05    Clear\n",
      "365     1/16/2012 5:00   -19.1  ...     103.02    Clear\n",
      "366     1/16/2012 6:00   -18.7  ...     103.01    Clear\n",
      "425    1/18/2012 17:00   -11.3  ...     101.54    Clear\n",
      "426    1/18/2012 18:00   -12.0  ...     101.67    Clear\n",
      "427    1/18/2012 19:00   -12.7  ...     101.78    Clear\n",
      "428    1/18/2012 20:00   -13.4  ...     101.83    Clear\n",
      "429    1/18/2012 21:00   -13.7  ...     101.89    Clear\n",
      "430    1/18/2012 22:00   -14.2  ...     101.92    Clear\n",
      "431    1/18/2012 23:00   -14.9  ...     101.93    Clear\n",
      "432     1/19/2012 0:00   -16.6  ...     101.94    Clear\n",
      "433     1/19/2012 1:00   -15.2  ...     101.89    Clear\n",
      "434     1/19/2012 2:00   -14.3  ...     101.86    Clear\n",
      "435     1/19/2012 3:00   -18.0  ...     101.83    Clear\n",
      "436     1/19/2012 4:00   -15.4  ...     101.81    Clear\n",
      "437     1/19/2012 5:00   -16.6  ...     101.85    Clear\n",
      "438     1/19/2012 6:00   -15.3  ...     101.83    Clear\n",
      "439     1/19/2012 7:00   -14.6  ...     101.84    Clear\n",
      "440     1/19/2012 8:00   -13.7  ...     101.84    Clear\n",
      "441     1/19/2012 9:00   -12.7  ...     101.73    Clear\n",
      "465     1/20/2012 9:00   -12.2  ...     101.59    Clear\n",
      "467    1/20/2012 11:00   -14.2  ...     101.84    Clear\n",
      "468    1/20/2012 12:00   -15.2  ...     101.88    Clear\n",
      "469    1/20/2012 13:00   -15.8  ...     101.96    Clear\n",
      "494    1/21/2012 14:00   -12.5  ...     102.01    Clear\n",
      "495    1/21/2012 15:00   -11.8  ...     102.06    Clear\n",
      "496    1/21/2012 16:00   -11.6  ...     102.11    Clear\n",
      "497    1/21/2012 17:00   -12.1  ...     102.16    Clear\n",
      "498    1/21/2012 18:00   -13.0  ...     102.24    Clear\n",
      "499    1/21/2012 19:00   -13.4  ...     102.27    Clear\n",
      "500    1/21/2012 20:00   -18.5  ...     102.36    Clear\n",
      "501    1/21/2012 21:00   -16.0  ...     102.47    Clear\n",
      "502    1/21/2012 22:00   -17.6  ...     102.52    Clear\n",
      "504     1/22/2012 0:00   -18.3  ...     102.57    Clear\n",
      "505     1/22/2012 1:00   -17.5  ...     102.64    Clear\n",
      "506     1/22/2012 2:00   -18.5  ...     102.71    Clear\n",
      "525    1/22/2012 21:00   -12.9  ...     102.38    Clear\n",
      "601     1/26/2012 1:00    -7.0  ...     101.95    Clear\n",
      "602     1/26/2012 2:00    -8.2  ...     101.99    Clear\n",
      "603     1/26/2012 3:00    -8.1  ...     101.97    Clear\n",
      "604     1/26/2012 4:00    -8.5  ...     101.95    Clear\n",
      "605     1/26/2012 5:00    -9.0  ...     102.02    Clear\n",
      "606     1/26/2012 6:00   -11.2  ...     102.06    Clear\n",
      "608     1/26/2012 8:00    -9.2  ...     102.08    Clear\n",
      "695    1/29/2012 23:00    -3.4  ...     100.85    Clear\n",
      "696     1/30/2012 0:00    -3.7  ...     100.89    Clear\n",
      "698     1/30/2012 2:00    -5.1  ...     100.99    Clear\n",
      "699     1/30/2012 3:00    -6.1  ...     101.07    Clear\n",
      "700     1/30/2012 4:00    -7.7  ...     101.19    Clear\n",
      "701     1/30/2012 5:00    -7.9  ...     101.33    Clear\n",
      "702     1/30/2012 6:00    -8.9  ...     101.47    Clear\n",
      "703     1/30/2012 7:00    -9.8  ...     101.55    Clear\n",
      "704     1/30/2012 8:00   -10.5  ...     101.68    Clear\n",
      "710    1/30/2012 14:00    -6.7  ...     101.81    Clear\n",
      "822      2/4/2012 6:00    -9.4  ...     102.27    Clear\n",
      "823      2/4/2012 7:00   -11.0  ...     102.25    Clear\n",
      "824      2/4/2012 8:00   -11.6  ...     102.31    Clear\n",
      "825      2/4/2012 9:00    -9.6  ...     102.37    Clear\n",
      "827     2/4/2012 11:00    -7.6  ...     102.29    Clear\n",
      "832     2/4/2012 16:00    -5.7  ...     101.99    Clear\n",
      "833     2/4/2012 17:00    -6.2  ...     101.97    Clear\n",
      "834     2/4/2012 18:00    -6.6  ...     101.96    Clear\n",
      "835     2/4/2012 19:00    -7.7  ...     101.97    Clear\n",
      "836     2/4/2012 20:00    -8.8  ...     101.97    Clear\n",
      "837     2/4/2012 21:00    -9.9  ...     101.97    Clear\n",
      "838     2/4/2012 22:00   -10.3  ...     101.93    Clear\n",
      "839     2/4/2012 23:00   -10.1  ...     101.89    Clear\n",
      "840      2/5/2012 0:00   -11.9  ...     101.89    Clear\n",
      "841      2/5/2012 1:00   -12.1  ...     101.87    Clear\n",
      "842      2/5/2012 2:00   -14.4  ...     101.88    Clear\n",
      "843      2/5/2012 3:00   -12.9  ...     101.86    Clear\n",
      "844      2/5/2012 4:00   -14.9  ...     101.86    Clear\n",
      "845      2/5/2012 5:00   -14.2  ...     101.91    Clear\n",
      "846      2/5/2012 6:00   -14.7  ...     101.93    Clear\n",
      "847      2/5/2012 7:00   -15.7  ...     101.93    Clear\n",
      "848      2/5/2012 8:00   -15.0  ...     101.95    Clear\n",
      "849      2/5/2012 9:00   -13.5  ...     101.97    Clear\n",
      "901     2/7/2012 13:00    -5.2  ...     101.73    Clear\n",
      "902     2/7/2012 14:00    -5.1  ...     101.79    Clear\n",
      "903     2/7/2012 15:00    -4.8  ...     101.85    Clear\n",
      "904     2/7/2012 16:00    -5.0  ...     101.88    Clear\n",
      "905     2/7/2012 17:00    -5.9  ...     101.94    Clear\n",
      "906     2/7/2012 18:00    -7.3  ...     102.03    Clear\n",
      "907     2/7/2012 19:00    -8.2  ...     102.09    Clear\n",
      "908     2/7/2012 20:00    -9.2  ...     102.12    Clear\n",
      "909     2/7/2012 21:00    -9.6  ...     102.15    Clear\n",
      "910     2/7/2012 22:00   -10.8  ...     102.21    Clear\n",
      "911     2/7/2012 23:00   -11.8  ...     102.21    Clear\n",
      "912      2/8/2012 0:00   -13.8  ...     102.21    Clear\n",
      "913      2/8/2012 1:00   -11.9  ...     102.21    Clear\n",
      "914      2/8/2012 2:00   -12.1  ...     102.20    Clear\n",
      "915      2/8/2012 3:00   -12.4  ...     102.15    Clear\n",
      "916      2/8/2012 4:00   -14.0  ...     102.13    Clear\n",
      "917      2/8/2012 5:00   -12.6  ...     102.11    Clear\n",
      "924     2/8/2012 12:00    -4.6  ...     101.76    Clear\n",
      "925     2/8/2012 13:00    -3.3  ...     101.63    Clear\n",
      "931     2/8/2012 19:00    -3.2  ...     101.28    Clear\n",
      "932     2/8/2012 20:00    -3.3  ...     101.26    Clear\n",
      "935     2/8/2012 23:00    -3.6  ...     101.19    Clear\n",
      "936      2/9/2012 0:00    -4.0  ...     101.17    Clear\n",
      "937      2/9/2012 1:00    -3.4  ...     101.16    Clear\n",
      "938      2/9/2012 2:00    -3.9  ...     101.17    Clear\n",
      "939      2/9/2012 3:00    -3.5  ...     101.12    Clear\n",
      "940      2/9/2012 4:00    -3.4  ...     101.10    Clear\n",
      "941      2/9/2012 5:00    -4.1  ...     101.11    Clear\n",
      "942      2/9/2012 6:00    -4.9  ...     101.13    Clear\n",
      "944      2/9/2012 8:00    -4.9  ...     101.23    Clear\n",
      "947     2/9/2012 11:00    -1.2  ...     101.27    Clear\n",
      "948     2/9/2012 12:00    -0.1  ...     101.19    Clear\n",
      "949     2/9/2012 13:00     0.7  ...     101.13    Clear\n",
      "950     2/9/2012 14:00     1.5  ...     101.05    Clear\n",
      "951     2/9/2012 15:00     2.4  ...     101.03    Clear\n",
      "952     2/9/2012 16:00     2.7  ...     101.01    Clear\n",
      "953     2/9/2012 17:00     2.0  ...     101.02    Clear\n",
      "954     2/9/2012 18:00     1.6  ...     101.06    Clear\n",
      "955     2/9/2012 19:00     0.4  ...     101.10    Clear\n",
      "956     2/9/2012 20:00     0.5  ...     101.11    Clear\n",
      "957     2/9/2012 21:00     0.2  ...     101.13    Clear\n",
      "958     2/9/2012 22:00     0.8  ...     101.11    Clear\n",
      "959     2/9/2012 23:00     0.1  ...     101.10    Clear\n",
      "960     2/10/2012 0:00     0.4  ...     101.12    Clear\n",
      "961     2/10/2012 1:00     0.1  ...     101.13    Clear\n",
      "962     2/10/2012 2:00     0.0  ...     101.15    Clear\n",
      "963     2/10/2012 3:00    -1.0  ...     101.13    Clear\n",
      "964     2/10/2012 4:00    -0.8  ...     101.10    Clear\n",
      "965     2/10/2012 5:00    -0.8  ...     101.07    Clear\n",
      "966     2/10/2012 6:00    -0.7  ...     101.07    Clear\n",
      "1002   2/11/2012 18:00   -12.8  ...     100.72    Clear\n",
      "1003   2/11/2012 19:00   -14.0  ...     100.74    Clear\n",
      "1004   2/11/2012 20:00   -14.4  ...     100.73    Clear\n",
      "1005   2/11/2012 21:00   -13.9  ...     100.71    Clear\n",
      "1006   2/11/2012 22:00   -13.5  ...     100.70    Clear\n",
      "1007   2/11/2012 23:00   -14.5  ...     100.68    Clear\n",
      "1008    2/12/2012 0:00   -15.0  ...     100.66    Clear\n",
      "1010    2/12/2012 2:00   -15.9  ...     100.60    Clear\n",
      "1172   2/18/2012 20:00    -1.7  ...     101.09    Clear\n",
      "1173   2/18/2012 21:00    -2.4  ...     101.16    Clear\n",
      "1174   2/18/2012 22:00    -3.5  ...     101.21    Clear\n",
      "1175   2/18/2012 23:00    -3.9  ...     101.29    Clear\n",
      "1176    2/19/2012 0:00    -3.9  ...     101.37    Clear\n",
      "1179    2/19/2012 3:00    -6.0  ...     101.43    Clear\n",
      "1182    2/19/2012 6:00    -6.7  ...     101.50    Clear\n",
      "1190   2/19/2012 14:00    -2.3  ...     101.45    Clear\n",
      "1191   2/19/2012 15:00    -1.6  ...     101.43    Clear\n",
      "1192   2/19/2012 16:00    -1.6  ...     101.37    Clear\n",
      "1193   2/19/2012 17:00    -2.1  ...     101.36    Clear\n",
      "1194   2/19/2012 18:00    -2.9  ...     101.39    Clear\n",
      "1195   2/19/2012 19:00    -3.2  ...     101.43    Clear\n",
      "1196   2/19/2012 20:00    -3.8  ...     101.47    Clear\n",
      "1197   2/19/2012 21:00    -4.8  ...     101.51    Clear\n",
      "1198   2/19/2012 22:00    -5.4  ...     101.52    Clear\n",
      "1199   2/19/2012 23:00    -6.3  ...     101.52    Clear\n",
      "1200    2/20/2012 0:00    -6.7  ...     101.55    Clear\n",
      "1201    2/20/2012 1:00    -7.6  ...     101.63    Clear\n",
      "1202    2/20/2012 2:00    -8.8  ...     101.66    Clear\n",
      "1203    2/20/2012 3:00    -8.8  ...     101.68    Clear\n",
      "1204    2/20/2012 4:00    -9.8  ...     101.69    Clear\n",
      "1205    2/20/2012 5:00   -10.2  ...     101.77    Clear\n",
      "1206    2/20/2012 6:00   -10.7  ...     101.81    Clear\n",
      "1207    2/20/2012 7:00   -11.0  ...     101.87    Clear\n",
      "1217   2/20/2012 17:00    -1.9  ...     102.08    Clear\n",
      "1218   2/20/2012 18:00    -3.2  ...     102.10    Clear\n",
      "1219   2/20/2012 19:00    -3.6  ...     102.13    Clear\n",
      "1221   2/20/2012 21:00    -3.5  ...     102.18    Clear\n",
      "1222   2/20/2012 22:00    -3.3  ...     102.20    Clear\n",
      "1223   2/20/2012 23:00    -5.8  ...     102.20    Clear\n",
      "1224    2/21/2012 0:00    -4.0  ...     102.21    Clear\n",
      "1225    2/21/2012 1:00    -4.3  ...     102.18    Clear\n",
      "1226    2/21/2012 2:00    -4.1  ...     102.21    Clear\n",
      "1227    2/21/2012 3:00    -5.3  ...     102.19    Clear\n",
      "1228    2/21/2012 4:00    -5.2  ...     102.12    Clear\n",
      "1291   2/23/2012 19:00     1.6  ...     100.05    Clear\n",
      "1292   2/23/2012 20:00     1.1  ...     100.12    Clear\n",
      "1293   2/23/2012 21:00     0.5  ...     100.23    Clear\n",
      "1294   2/23/2012 22:00    -0.2  ...     100.28    Clear\n",
      "1295   2/23/2012 23:00    -1.0  ...     100.31    Clear\n",
      "1296    2/24/2012 0:00    -0.9  ...     100.34    Clear\n",
      "1297    2/24/2012 1:00    -1.7  ...     100.29    Clear\n",
      "1298    2/24/2012 2:00    -1.8  ...     100.20    Clear\n",
      "1346    2/26/2012 2:00    -9.2  ...     101.26    Clear\n",
      "1349    2/26/2012 5:00   -11.6  ...     101.77    Clear\n",
      "1350    2/26/2012 6:00   -11.3  ...     101.92    Clear\n",
      "1351    2/26/2012 7:00   -12.1  ...     102.07    Clear\n",
      "1354   2/26/2012 10:00   -11.2  ...     102.35    Clear\n",
      "1355   2/26/2012 11:00   -10.1  ...     102.39    Clear\n",
      "1356   2/26/2012 12:00    -9.3  ...     102.42    Clear\n",
      "1401    2/28/2012 9:00    -8.3  ...     102.63    Clear\n",
      "1402   2/28/2012 10:00    -7.5  ...     102.65    Clear\n",
      "1403   2/28/2012 11:00    -6.5  ...     102.69    Clear\n",
      "1410   2/28/2012 18:00    -5.3  ...     102.56    Clear\n",
      "1411   2/28/2012 19:00    -5.9  ...     102.58    Clear\n",
      "1412   2/28/2012 20:00    -6.8  ...     102.56    Clear\n",
      "1413   2/28/2012 21:00    -8.7  ...     102.53    Clear\n",
      "1414   2/28/2012 22:00    -8.3  ...     102.52    Clear\n",
      "1415   2/28/2012 23:00   -10.0  ...     102.52    Clear\n",
      "1416    2/29/2012 0:00    -8.2  ...     102.51    Clear\n",
      "1417    2/29/2012 1:00    -9.5  ...     102.47    Clear\n",
      "1419    2/29/2012 3:00   -11.5  ...     102.45    Clear\n",
      "1421    2/29/2012 5:00   -13.1  ...     102.40    Clear\n",
      "1422    2/29/2012 6:00   -12.2  ...     102.41    Clear\n",
      "1538     3/5/2012 2:00   -14.5  ...     100.39    Clear\n",
      "1539     3/5/2012 3:00   -15.0  ...     100.47    Clear\n",
      "1540     3/5/2012 4:00   -15.5  ...     100.55    Clear\n",
      "1541     3/5/2012 5:00   -15.9  ...     100.69    Clear\n",
      "1555    3/5/2012 19:00   -10.1  ...     102.01    Clear\n",
      "1557    3/5/2012 21:00   -11.0  ...     102.23    Clear\n",
      "1558    3/5/2012 22:00   -11.6  ...     102.29    Clear\n",
      "1559    3/5/2012 23:00   -12.6  ...     102.34    Clear\n",
      "1560     3/6/2012 0:00   -13.4  ...     102.41    Clear\n",
      "1561     3/6/2012 1:00   -13.4  ...     102.50    Clear\n",
      "1562     3/6/2012 2:00   -13.7  ...     102.55    Clear\n",
      "1563     3/6/2012 3:00   -14.8  ...     102.61    Clear\n",
      "1564     3/6/2012 4:00   -14.5  ...     102.70    Clear\n",
      "1565     3/6/2012 5:00   -14.6  ...     102.85    Clear\n",
      "1566     3/6/2012 6:00   -15.3  ...     102.90    Clear\n",
      "1567     3/6/2012 7:00   -14.8  ...     103.00    Clear\n",
      "1568     3/6/2012 8:00   -13.0  ...     103.06    Clear\n",
      "1569     3/6/2012 9:00   -11.3  ...     103.10    Clear\n",
      "1593     3/7/2012 9:00    -2.5  ...     101.85    Clear\n",
      "1594    3/7/2012 10:00    -0.1  ...     101.76    Clear\n",
      "1639     3/9/2012 7:00    -5.0  ...     101.31    Clear\n",
      "1640     3/9/2012 8:00    -4.7  ...     101.41    Clear\n",
      "1641     3/9/2012 9:00    -4.0  ...     101.46    Clear\n",
      "1668   3/10/2012 12:00    -4.1  ...     102.99    Clear\n",
      "1687    3/11/2012 7:00    -1.8  ...     101.97    Clear\n",
      "1688    3/11/2012 8:00     0.1  ...     102.00    Clear\n",
      "1690   3/11/2012 10:00     3.8  ...     101.97    Clear\n",
      "1691   3/11/2012 11:00     5.9  ...     101.92    Clear\n",
      "1692   3/11/2012 12:00     6.8  ...     101.86    Clear\n",
      "1693   3/11/2012 13:00     9.0  ...     101.79    Clear\n",
      "1694   3/11/2012 14:00     9.5  ...     101.74    Clear\n",
      "1695   3/11/2012 15:00    10.5  ...     101.69    Clear\n",
      "1696   3/11/2012 16:00    10.9  ...     101.65    Clear\n",
      "1697   3/11/2012 17:00    10.7  ...     101.65    Clear\n",
      "1698   3/11/2012 18:00     9.1  ...     101.68    Clear\n",
      "1699   3/11/2012 19:00     7.4  ...     101.69    Clear\n",
      "1700   3/11/2012 20:00     4.8  ...     101.70    Clear\n",
      "1702   3/11/2012 22:00     5.2  ...     101.72    Clear\n",
      "1703   3/11/2012 23:00     6.1  ...     101.75    Clear\n",
      "1704    3/12/2012 0:00     6.0  ...     101.77    Clear\n",
      "1709    3/12/2012 5:00     2.3  ...     101.82    Clear\n",
      "1710    3/12/2012 6:00     3.1  ...     101.89    Clear\n",
      "1851    3/18/2012 3:00     3.9  ...     101.66    Clear\n",
      "1852    3/18/2012 4:00     3.2  ...     101.69    Clear\n",
      "1853    3/18/2012 5:00     3.5  ...     101.70    Clear\n",
      "1854    3/18/2012 6:00     3.6  ...     101.72    Clear\n",
      "1859   3/18/2012 11:00    14.1  ...     101.71    Clear\n",
      "1860   3/18/2012 12:00    17.3  ...     101.63    Clear\n",
      "1868   3/18/2012 20:00    12.8  ...     101.34    Clear\n",
      "1873    3/19/2012 1:00    10.8  ...     101.39    Clear\n",
      "1874    3/19/2012 2:00    10.6  ...     101.42    Clear\n",
      "1875    3/19/2012 3:00    10.2  ...     101.42    Clear\n",
      "1876    3/19/2012 4:00    11.2  ...     101.49    Clear\n",
      "1877    3/19/2012 5:00     9.7  ...     101.50    Clear\n",
      "1893   3/19/2012 21:00     9.5  ...     101.80    Clear\n",
      "1894   3/19/2012 22:00     8.8  ...     101.83    Clear\n",
      "1895   3/19/2012 23:00     7.2  ...     101.86    Clear\n",
      "1896    3/20/2012 0:00     7.1  ...     101.85    Clear\n",
      "1897    3/20/2012 1:00     6.1  ...     101.85    Clear\n",
      "1898    3/20/2012 2:00     5.7  ...     101.85    Clear\n",
      "1899    3/20/2012 3:00     5.2  ...     101.86    Clear\n",
      "1900    3/20/2012 4:00     5.2  ...     101.88    Clear\n",
      "1901    3/20/2012 5:00     5.0  ...     101.92    Clear\n",
      "1902    3/20/2012 6:00     3.2  ...     101.97    Clear\n",
      "1903    3/20/2012 7:00     5.5  ...     102.00    Clear\n",
      "1904    3/20/2012 8:00     8.0  ...     102.08    Clear\n",
      "1907   3/20/2012 11:00    14.9  ...     102.02    Clear\n",
      "1908   3/20/2012 12:00    16.5  ...     101.98    Clear\n",
      "1909   3/20/2012 13:00    20.0  ...     101.93    Clear\n",
      "1910   3/20/2012 14:00    21.5  ...     101.83    Clear\n",
      "1911   3/20/2012 15:00    22.5  ...     101.78    Clear\n",
      "1912   3/20/2012 16:00    23.3  ...     101.73    Clear\n",
      "1913   3/20/2012 17:00    22.0  ...     101.72    Clear\n",
      "1914   3/20/2012 18:00    19.7  ...     101.74    Clear\n",
      "1915   3/20/2012 19:00    17.5  ...     101.79    Clear\n",
      "1916   3/20/2012 20:00    18.1  ...     101.85    Clear\n",
      "1917   3/20/2012 21:00    16.0  ...     101.89    Clear\n",
      "1918   3/20/2012 22:00    14.2  ...     101.90    Clear\n",
      "1919   3/20/2012 23:00    14.3  ...     101.91    Clear\n",
      "1920    3/21/2012 0:00    14.0  ...     101.90    Clear\n",
      "1921    3/21/2012 1:00    12.4  ...     101.92    Clear\n",
      "1922    3/21/2012 2:00    11.8  ...     101.93    Clear\n",
      "1923    3/21/2012 3:00    11.4  ...     101.93    Clear\n",
      "1924    3/21/2012 4:00    10.6  ...     101.95    Clear\n",
      "1925    3/21/2012 5:00    10.0  ...     102.02    Clear\n",
      "1928    3/21/2012 8:00    13.8  ...     102.15    Clear\n",
      "1929    3/21/2012 9:00    15.9  ...     102.17    Clear\n",
      "1930   3/21/2012 10:00    18.2  ...     102.09    Clear\n",
      "1931   3/21/2012 11:00    20.2  ...     102.01    Clear\n",
      "1932   3/21/2012 12:00    22.3  ...     101.94    Clear\n",
      "1933   3/21/2012 13:00    23.8  ...     101.85    Clear\n",
      "1934   3/21/2012 14:00    24.7  ...     101.77    Clear\n",
      "1935   3/21/2012 15:00    25.4  ...     101.72    Clear\n",
      "1936   3/21/2012 16:00    25.5  ...     101.69    Clear\n",
      "1937   3/21/2012 17:00    25.2  ...     101.68    Clear\n",
      "1938   3/21/2012 18:00    20.7  ...     101.67    Clear\n",
      "1939   3/21/2012 19:00    17.2  ...     101.67    Clear\n",
      "1940   3/21/2012 20:00    18.4  ...     101.70    Clear\n",
      "1941   3/21/2012 21:00    16.4  ...     101.68    Clear\n",
      "1942   3/21/2012 22:00    18.0  ...     101.66    Clear\n",
      "1943   3/21/2012 23:00    16.5  ...     101.66    Clear\n",
      "1944    3/22/2012 0:00    17.0  ...     101.63    Clear\n",
      "1945    3/22/2012 1:00    15.5  ...     101.62    Clear\n",
      "1946    3/22/2012 2:00    15.0  ...     101.59    Clear\n",
      "1947    3/22/2012 3:00    11.0  ...     101.56    Clear\n",
      "1948    3/22/2012 4:00    13.2  ...     101.54    Clear\n",
      "1949    3/22/2012 5:00    12.8  ...     101.59    Clear\n",
      "1967   3/22/2012 23:00    11.3  ...     101.62    Clear\n",
      "1972    3/23/2012 4:00     9.2  ...     101.76    Clear\n",
      "1973    3/23/2012 5:00     8.0  ...     101.85    Clear\n",
      "1974    3/23/2012 6:00     6.6  ...     101.90    Clear\n",
      "1975    3/23/2012 7:00     8.4  ...     101.93    Clear\n",
      "1976    3/23/2012 8:00    11.3  ...     101.93    Clear\n",
      "1977    3/23/2012 9:00    12.8  ...     101.94    Clear\n",
      "1978   3/23/2012 10:00    14.5  ...     101.93    Clear\n",
      "1979   3/23/2012 11:00    14.9  ...     101.87    Clear\n",
      "2044    3/26/2012 4:00    -1.1  ...     100.74    Clear\n",
      "2045    3/26/2012 5:00    -1.9  ...     100.86    Clear\n",
      "2046    3/26/2012 6:00    -3.8  ...     101.03    Clear\n",
      "2056   3/26/2012 16:00     1.3  ...     101.29    Clear\n",
      "2057   3/26/2012 17:00     1.2  ...     101.34    Clear\n",
      "2058   3/26/2012 18:00     0.1  ...     101.43    Clear\n",
      "2059   3/26/2012 19:00    -0.7  ...     101.56    Clear\n",
      "2060   3/26/2012 20:00    -1.4  ...     101.68    Clear\n",
      "2061   3/26/2012 21:00    -2.3  ...     101.79    Clear\n",
      "2062   3/26/2012 22:00    -2.9  ...     101.84    Clear\n",
      "2063   3/26/2012 23:00    -3.6  ...     101.90    Clear\n",
      "2064    3/27/2012 0:00    -4.3  ...     101.94    Clear\n",
      "2065    3/27/2012 1:00    -5.0  ...     101.96    Clear\n",
      "2066    3/27/2012 2:00    -5.4  ...     102.02    Clear\n",
      "2067    3/27/2012 3:00    -6.0  ...     102.06    Clear\n",
      "2068    3/27/2012 4:00    -6.5  ...     102.14    Clear\n",
      "2069    3/27/2012 5:00    -7.4  ...     102.24    Clear\n",
      "2070    3/27/2012 6:00    -7.5  ...     102.31    Clear\n",
      "2071    3/27/2012 7:00    -6.1  ...     102.39    Clear\n",
      "2072    3/27/2012 8:00    -5.1  ...     102.41    Clear\n",
      "2073    3/27/2012 9:00    -4.3  ...     102.44    Clear\n",
      "2074   3/27/2012 10:00    -2.5  ...     102.48    Clear\n",
      "2075   3/27/2012 11:00    -1.6  ...     102.43    Clear\n",
      "2076   3/27/2012 12:00     0.2  ...     102.31    Clear\n",
      "2138    3/30/2012 2:00    -2.2  ...     101.22    Clear\n",
      "2141    3/30/2012 5:00    -5.1  ...     101.32    Clear\n",
      "2142    3/30/2012 6:00    -4.8  ...     101.39    Clear\n",
      "2143    3/30/2012 7:00    -4.3  ...     101.52    Clear\n",
      "2144    3/30/2012 8:00    -3.0  ...     101.56    Clear\n",
      "2145    3/30/2012 9:00    -2.0  ...     101.63    Clear\n",
      "2146   3/30/2012 10:00    -0.8  ...     101.62    Clear\n",
      "2171   3/31/2012 11:00     4.6  ...     101.24    Clear\n",
      "2172   3/31/2012 12:00     6.4  ...     101.16    Clear\n",
      "2173   3/31/2012 13:00     6.5  ...     101.08    Clear\n",
      "2179   3/31/2012 19:00     5.9  ...     100.88    Clear\n",
      "2180   3/31/2012 20:00     4.4  ...     100.85    Clear\n",
      "2181   3/31/2012 21:00     2.6  ...     100.86    Clear\n",
      "2182   3/31/2012 22:00     2.7  ...     100.82    Clear\n",
      "2183   3/31/2012 23:00     1.5  ...     100.79    Clear\n",
      "2184     4/1/2012 0:00     0.4  ...     100.75    Clear\n",
      "2185     4/1/2012 1:00    -1.5  ...     100.77    Clear\n",
      "2186     4/1/2012 2:00     0.1  ...     100.70    Clear\n",
      "2187     4/1/2012 3:00    -1.0  ...     100.67    Clear\n",
      "2210     4/2/2012 2:00    -0.4  ...     100.31    Clear\n",
      "2213     4/2/2012 5:00    -1.7  ...     100.47    Clear\n",
      "2214     4/2/2012 6:00    -1.8  ...     100.56    Clear\n",
      "2215     4/2/2012 7:00     0.2  ...     100.65    Clear\n",
      "2216     4/2/2012 8:00     2.1  ...     100.69    Clear\n",
      "2217     4/2/2012 9:00     3.4  ...     100.72    Clear\n",
      "2218    4/2/2012 10:00     4.5  ...     100.73    Clear\n",
      "2219    4/2/2012 11:00     4.6  ...     100.72    Clear\n",
      "2220    4/2/2012 12:00     6.2  ...     100.65    Clear\n",
      "2221    4/2/2012 13:00     6.7  ...     100.64    Clear\n",
      "2222    4/2/2012 14:00     7.3  ...     100.62    Clear\n",
      "2223    4/2/2012 15:00     7.9  ...     100.60    Clear\n",
      "2224    4/2/2012 16:00     7.9  ...     100.59    Clear\n",
      "2226    4/2/2012 18:00     6.9  ...     100.65    Clear\n",
      "2227    4/2/2012 19:00     4.9  ...     100.69    Clear\n",
      "2228    4/2/2012 20:00     3.5  ...     100.75    Clear\n",
      "2229    4/2/2012 21:00     3.1  ...     100.78    Clear\n",
      "2230    4/2/2012 22:00     0.6  ...     100.84    Clear\n",
      "2231    4/2/2012 23:00     1.0  ...     100.83    Clear\n",
      "2232     4/3/2012 0:00    -0.3  ...     100.84    Clear\n",
      "2233     4/3/2012 1:00    -1.1  ...     100.86    Clear\n",
      "2234     4/3/2012 2:00    -0.9  ...     100.84    Clear\n",
      "2235     4/3/2012 3:00    -3.0  ...     100.87    Clear\n",
      "2236     4/3/2012 4:00    -2.1  ...     100.92    Clear\n",
      "2237     4/3/2012 5:00    -2.6  ...     100.99    Clear\n",
      "2238     4/3/2012 6:00    -2.0  ...     101.03    Clear\n",
      "2239     4/3/2012 7:00     0.3  ...     101.09    Clear\n",
      "2240     4/3/2012 8:00     1.7  ...     101.08    Clear\n",
      "2241     4/3/2012 9:00     2.5  ...     101.07    Clear\n",
      "2242    4/3/2012 10:00     4.3  ...     100.98    Clear\n",
      "2311     4/6/2012 7:00     0.4  ...     101.30    Clear\n",
      "2312     4/6/2012 8:00     1.1  ...     101.34    Clear\n",
      "2313     4/6/2012 9:00     2.1  ...     101.37    Clear\n",
      "2315    4/6/2012 11:00     5.7  ...     101.32    Clear\n",
      "2317    4/6/2012 13:00     7.6  ...     101.18    Clear\n",
      "2470   4/12/2012 22:00     6.7  ...     101.44    Clear\n",
      "2471   4/12/2012 23:00     5.9  ...     101.47    Clear\n",
      "2472    4/13/2012 0:00     4.6  ...     101.49    Clear\n",
      "2473    4/13/2012 1:00     4.0  ...     101.48    Clear\n",
      "2474    4/13/2012 2:00     2.0  ...     101.50    Clear\n",
      "2475    4/13/2012 3:00     1.5  ...     101.52    Clear\n",
      "2476    4/13/2012 4:00     1.2  ...     101.56    Clear\n",
      "2477    4/13/2012 5:00     1.3  ...     101.60    Clear\n",
      "2478    4/13/2012 6:00     1.8  ...     101.67    Clear\n",
      "2496    4/14/2012 0:00     7.9  ...     101.35    Clear\n",
      "2497    4/14/2012 1:00     7.5  ...     101.35    Clear\n",
      "2498    4/14/2012 2:00     6.8  ...     101.34    Clear\n",
      "2523    4/15/2012 3:00    11.3  ...     100.70    Clear\n",
      "2524    4/15/2012 4:00    10.9  ...     100.72    Clear\n",
      "2525    4/15/2012 5:00     9.9  ...     100.72    Clear\n",
      "2592    4/18/2012 0:00     2.9  ...     102.20    Clear\n",
      "2593    4/18/2012 1:00     2.4  ...     102.18    Clear\n",
      "2594    4/18/2012 2:00     0.9  ...     102.22    Clear\n",
      "2595    4/18/2012 3:00     1.1  ...     102.25    Clear\n",
      "2596    4/18/2012 4:00     0.4  ...     102.29    Clear\n",
      "2597    4/18/2012 5:00    -1.0  ...     102.34    Clear\n",
      "2598    4/18/2012 6:00     0.9  ...     102.41    Clear\n",
      "2599    4/18/2012 7:00     2.5  ...     102.44    Clear\n",
      "2600    4/18/2012 8:00     3.3  ...     102.43    Clear\n",
      "2601    4/18/2012 9:00     4.5  ...     102.41    Clear\n",
      "2602   4/18/2012 10:00     5.3  ...     102.36    Clear\n",
      "2603   4/18/2012 11:00     6.9  ...     102.24    Clear\n",
      "2617    4/19/2012 1:00     5.5  ...     101.42    Clear\n",
      "2618    4/19/2012 2:00     3.3  ...     101.33    Clear\n",
      "2637   4/19/2012 21:00    16.1  ...     100.72    Clear\n",
      "2641    4/20/2012 1:00    10.9  ...     100.91    Clear\n",
      "2787    4/26/2012 3:00     3.5  ...     100.66    Clear\n",
      "2788    4/26/2012 4:00     2.7  ...     100.66    Clear\n",
      "2789    4/26/2012 5:00     2.6  ...     100.69    Clear\n",
      "2790    4/26/2012 6:00     3.2  ...     100.71    Clear\n",
      "2850   4/28/2012 18:00     7.2  ...     101.43    Clear\n",
      "2851   4/28/2012 19:00     6.1  ...     101.46    Clear\n",
      "2853   4/28/2012 21:00     2.3  ...     101.55    Clear\n",
      "2866   4/29/2012 10:00     5.5  ...     101.67    Clear\n",
      "2867   4/29/2012 11:00     6.2  ...     101.62    Clear\n",
      "2868   4/29/2012 12:00     7.4  ...     101.62    Clear\n",
      "2869   4/29/2012 13:00     8.4  ...     101.64    Clear\n",
      "2870   4/29/2012 14:00     8.7  ...     101.65    Clear\n",
      "2871   4/29/2012 15:00     9.0  ...     101.63    Clear\n",
      "2873   4/29/2012 17:00     9.0  ...     101.72    Clear\n",
      "2874   4/29/2012 18:00     8.1  ...     101.77    Clear\n",
      "2875   4/29/2012 19:00     6.9  ...     101.82    Clear\n",
      "2878   4/29/2012 22:00     5.1  ...     102.05    Clear\n",
      "2879   4/29/2012 23:00     4.1  ...     102.09    Clear\n",
      "2880    4/30/2012 0:00     3.3  ...     102.06    Clear\n",
      "2881    4/30/2012 1:00     2.2  ...     102.12    Clear\n",
      "2882    4/30/2012 2:00     3.2  ...     102.09    Clear\n",
      "2883    4/30/2012 3:00     2.4  ...     102.09    Clear\n",
      "2884    4/30/2012 4:00     0.7  ...     102.14    Clear\n",
      "3016    5/5/2012 16:00    16.0  ...     101.51    Clear\n",
      "3017    5/5/2012 17:00    15.9  ...     101.53    Clear\n",
      "3047    5/6/2012 23:00    11.1  ...     101.57    Clear\n",
      "3048     5/7/2012 0:00     9.9  ...     101.57    Clear\n",
      "3049     5/7/2012 1:00     6.9  ...     101.55    Clear\n",
      "3050     5/7/2012 2:00     5.2  ...     101.56    Clear\n",
      "3051     5/7/2012 3:00     4.6  ...     101.55    Clear\n",
      "3052     5/7/2012 4:00     5.1  ...     101.61    Clear\n",
      "3053     5/7/2012 5:00     5.7  ...     101.60    Clear\n",
      "3054     5/7/2012 6:00     8.2  ...     101.63    Clear\n",
      "3055     5/7/2012 7:00    12.3  ...     101.64    Clear\n",
      "3056     5/7/2012 8:00    14.0  ...     101.67    Clear\n",
      "3057     5/7/2012 9:00    16.0  ...     101.68    Clear\n",
      "3058    5/7/2012 10:00    17.1  ...     101.67    Clear\n",
      "3069    5/7/2012 21:00    18.7  ...     100.87    Clear\n",
      "3162   5/11/2012 18:00    16.8  ...     100.87    Clear\n",
      "3163   5/11/2012 19:00    15.1  ...     100.95    Clear\n",
      "3164   5/11/2012 20:00    12.1  ...     101.04    Clear\n",
      "3165   5/11/2012 21:00    10.2  ...     101.10    Clear\n",
      "3166   5/11/2012 22:00     7.7  ...     101.15    Clear\n",
      "3167   5/11/2012 23:00     7.8  ...     101.19    Clear\n",
      "3168    5/12/2012 0:00     7.1  ...     101.19    Clear\n",
      "3169    5/12/2012 1:00     9.8  ...     101.22    Clear\n",
      "3170    5/12/2012 2:00     8.5  ...     101.23    Clear\n",
      "3171    5/12/2012 3:00     7.0  ...     101.28    Clear\n",
      "3172    5/12/2012 4:00     7.9  ...     101.35    Clear\n",
      "3173    5/12/2012 5:00     7.3  ...     101.37    Clear\n",
      "3174    5/12/2012 6:00     9.4  ...     101.42    Clear\n",
      "3175    5/12/2012 7:00    11.1  ...     101.45    Clear\n",
      "3176    5/12/2012 8:00    12.9  ...     101.46    Clear\n",
      "3177    5/12/2012 9:00    14.6  ...     101.43    Clear\n",
      "3178   5/12/2012 10:00    16.7  ...     101.41    Clear\n",
      "3210   5/13/2012 18:00    19.7  ...     101.47    Clear\n",
      "3213   5/13/2012 21:00    13.4  ...     101.54    Clear\n",
      "3214   5/13/2012 22:00    12.7  ...     101.54    Clear\n",
      "3215   5/13/2012 23:00    13.3  ...     101.54    Clear\n",
      "3216    5/14/2012 0:00    11.8  ...     101.53    Clear\n",
      "3217    5/14/2012 1:00    12.8  ...     101.51    Clear\n",
      "3218    5/14/2012 2:00    12.0  ...     101.50    Clear\n",
      "3219    5/14/2012 3:00    12.0  ...     101.50    Clear\n",
      "3262   5/15/2012 22:00    15.9  ...     100.75    Clear\n",
      "3263   5/15/2012 23:00    15.4  ...     100.74    Clear\n",
      "3264    5/16/2012 0:00    14.6  ...     100.71    Clear\n",
      "3265    5/16/2012 1:00    13.9  ...     100.66    Clear\n",
      "3266    5/16/2012 2:00    13.9  ...     100.60    Clear\n",
      "3267    5/16/2012 3:00    13.3  ...     100.58    Clear\n",
      "3290    5/17/2012 2:00     8.3  ...     101.07    Clear\n",
      "3291    5/17/2012 3:00     7.3  ...     101.16    Clear\n",
      "3292    5/17/2012 4:00     6.6  ...     101.24    Clear\n",
      "3293    5/17/2012 5:00     6.0  ...     101.32    Clear\n",
      "3294    5/17/2012 6:00     8.5  ...     101.40    Clear\n",
      "3306   5/17/2012 18:00    15.1  ...     101.50    Clear\n",
      "3307   5/17/2012 19:00    14.1  ...     101.54    Clear\n",
      "3309   5/17/2012 21:00    12.4  ...     101.64    Clear\n",
      "3310   5/17/2012 22:00    10.1  ...     101.64    Clear\n",
      "3311   5/17/2012 23:00     9.9  ...     101.70    Clear\n",
      "3313    5/18/2012 1:00     9.9  ...     101.73    Clear\n",
      "3314    5/18/2012 2:00     9.2  ...     101.75    Clear\n",
      "3315    5/18/2012 3:00     8.6  ...     101.77    Clear\n",
      "3316    5/18/2012 4:00     8.6  ...     101.77    Clear\n",
      "3333   5/18/2012 21:00    14.4  ...     101.62    Clear\n",
      "3358   5/19/2012 22:00    21.9  ...     101.61    Clear\n",
      "3359   5/19/2012 23:00    18.2  ...     101.62    Clear\n",
      "3360    5/20/2012 0:00    18.3  ...     101.64    Clear\n",
      "3361    5/20/2012 1:00    16.9  ...     101.64    Clear\n",
      "3362    5/20/2012 2:00    16.1  ...     101.67    Clear\n",
      "3363    5/20/2012 3:00    16.8  ...     101.70    Clear\n",
      "3432    5/23/2012 0:00    13.1  ...     100.82    Clear\n",
      "3452   5/23/2012 20:00    20.4  ...     101.16    Clear\n",
      "3453   5/23/2012 21:00    20.4  ...     101.19    Clear\n",
      "3454   5/23/2012 22:00    19.6  ...     101.21    Clear\n",
      "3455   5/23/2012 23:00    18.9  ...     101.25    Clear\n",
      "3456    5/24/2012 0:00    16.4  ...     101.28    Clear\n",
      "3457    5/24/2012 1:00    15.0  ...     101.29    Clear\n",
      "3458    5/24/2012 2:00    12.6  ...     101.31    Clear\n",
      "3459    5/24/2012 3:00    14.5  ...     101.30    Clear\n",
      "3460    5/24/2012 4:00    14.0  ...     101.32    Clear\n",
      "3466   5/24/2012 10:00    24.6  ...     101.46    Clear\n",
      "3467   5/24/2012 11:00    26.1  ...     101.44    Clear\n",
      "3476   5/24/2012 20:00    23.1  ...     101.30    Clear\n",
      "3477   5/24/2012 21:00    22.4  ...     101.31    Clear\n",
      "3478   5/24/2012 22:00    21.9  ...     101.35    Clear\n",
      "3479   5/24/2012 23:00    21.1  ...     101.39    Clear\n",
      "3480    5/25/2012 0:00    20.7  ...     101.43    Clear\n",
      "3481    5/25/2012 1:00    19.7  ...     101.40    Clear\n",
      "3482    5/25/2012 2:00    19.4  ...     101.41    Clear\n",
      "3489    5/25/2012 9:00    23.3  ...     101.29    Clear\n",
      "3503   5/25/2012 23:00    21.3  ...     100.96    Clear\n",
      "3504    5/26/2012 0:00    19.8  ...     101.00    Clear\n",
      "3505    5/26/2012 1:00    19.3  ...     101.09    Clear\n",
      "3506    5/26/2012 2:00    18.6  ...     101.16    Clear\n",
      "3507    5/26/2012 3:00    17.1  ...     101.21    Clear\n",
      "3508    5/26/2012 4:00    16.4  ...     101.28    Clear\n",
      "3510    5/26/2012 6:00    17.1  ...     101.37    Clear\n",
      "3511    5/26/2012 7:00    18.1  ...     101.51    Clear\n",
      "3512    5/26/2012 8:00    19.4  ...     101.56    Clear\n",
      "3513    5/26/2012 9:00    21.1  ...     101.56    Clear\n",
      "3515   5/26/2012 11:00    22.6  ...     101.60    Clear\n",
      "3528    5/27/2012 0:00    15.7  ...     101.76    Clear\n",
      "3529    5/27/2012 1:00    14.6  ...     101.77    Clear\n",
      "3609    5/30/2012 9:00    20.5  ...     100.08    Clear\n",
      "3611   5/30/2012 11:00    22.1  ...     100.08    Clear\n",
      "3613   5/30/2012 13:00    23.5  ...     100.05    Clear\n",
      "3614   5/30/2012 14:00    23.5  ...     100.04    Clear\n",
      "3616   5/30/2012 16:00    23.7  ...     100.00    Clear\n",
      "3617   5/30/2012 17:00    23.1  ...     100.04    Clear\n",
      "3645   5/31/2012 21:00    12.8  ...     101.05    Clear\n",
      "3646   5/31/2012 22:00    12.5  ...     101.13    Clear\n",
      "3647   5/31/2012 23:00    12.8  ...     101.18    Clear\n",
      "3648     6/1/2012 0:00    11.6  ...     101.21    Clear\n",
      "3649     6/1/2012 1:00    11.3  ...     101.24    Clear\n",
      "3753     6/5/2012 9:00    17.4  ...     101.01    Clear\n",
      "3794     6/7/2012 2:00    12.8  ...     101.04    Clear\n",
      "3795     6/7/2012 3:00    12.3  ...     101.02    Clear\n",
      "3817     6/8/2012 1:00    15.7  ...     100.65    Clear\n",
      "3818     6/8/2012 2:00    15.3  ...     100.60    Clear\n",
      "3837    6/8/2012 21:00    14.1  ...     100.41    Clear\n",
      "3838    6/8/2012 22:00    13.5  ...     100.48    Clear\n",
      "3839    6/8/2012 23:00    12.0  ...     100.50    Clear\n",
      "3840     6/9/2012 0:00    12.8  ...     100.51    Clear\n",
      "3841     6/9/2012 1:00    12.9  ...     100.53    Clear\n",
      "3842     6/9/2012 2:00    12.2  ...     100.54    Clear\n",
      "3843     6/9/2012 3:00    11.5  ...     100.56    Clear\n",
      "3862    6/9/2012 22:00    17.0  ...     100.93    Clear\n",
      "3865    6/10/2012 1:00    15.6  ...     101.07    Clear\n",
      "3866    6/10/2012 2:00    13.7  ...     101.08    Clear\n",
      "3868    6/10/2012 4:00    12.4  ...     101.15    Clear\n",
      "3885   6/10/2012 21:00    22.8  ...     101.51    Clear\n",
      "3887   6/10/2012 23:00    23.0  ...     101.50    Clear\n",
      "3888    6/11/2012 0:00    21.7  ...     101.49    Clear\n",
      "3955   6/13/2012 19:00    20.0  ...     101.57    Clear\n",
      "3956   6/13/2012 20:00    17.6  ...     101.62    Clear\n",
      "3957   6/13/2012 21:00    15.1  ...     101.70    Clear\n",
      "3958   6/13/2012 22:00    14.6  ...     101.74    Clear\n",
      "3959   6/13/2012 23:00    15.2  ...     101.79    Clear\n",
      "3960    6/14/2012 0:00    14.5  ...     101.85    Clear\n",
      "3961    6/14/2012 1:00    13.4  ...     101.88    Clear\n",
      "3962    6/14/2012 2:00    13.0  ...     101.93    Clear\n",
      "3963    6/14/2012 3:00    12.3  ...     101.96    Clear\n",
      "3964    6/14/2012 4:00    12.4  ...     102.04    Clear\n",
      "3965    6/14/2012 5:00    12.4  ...     102.14    Clear\n",
      "3966    6/14/2012 6:00    14.7  ...     102.20    Clear\n",
      "3967    6/14/2012 7:00    16.5  ...     102.28    Clear\n",
      "3968    6/14/2012 8:00    18.5  ...     102.33    Clear\n",
      "3969    6/14/2012 9:00    20.0  ...     102.32    Clear\n",
      "3970   6/14/2012 10:00    20.0  ...     102.31    Clear\n",
      "3971   6/14/2012 11:00    21.2  ...     102.27    Clear\n",
      "3972   6/14/2012 12:00    21.3  ...     102.26    Clear\n",
      "3973   6/14/2012 13:00    22.2  ...     102.22    Clear\n",
      "3974   6/14/2012 14:00    22.4  ...     102.17    Clear\n",
      "3975   6/14/2012 15:00    22.9  ...     102.12    Clear\n",
      "3976   6/14/2012 16:00    22.5  ...     102.15    Clear\n",
      "3977   6/14/2012 17:00    22.9  ...     102.17    Clear\n",
      "3978   6/14/2012 18:00    22.7  ...     102.16    Clear\n",
      "3979   6/14/2012 19:00    22.5  ...     102.17    Clear\n",
      "3980   6/14/2012 20:00    21.7  ...     102.16    Clear\n",
      "3981   6/14/2012 21:00    21.0  ...     102.16    Clear\n",
      "3982   6/14/2012 22:00    20.2  ...     102.20    Clear\n",
      "3983   6/14/2012 23:00    19.6  ...     102.21    Clear\n",
      "3984    6/15/2012 0:00    18.9  ...     102.18    Clear\n",
      "3985    6/15/2012 1:00    17.1  ...     102.17    Clear\n",
      "3986    6/15/2012 2:00    14.2  ...     102.19    Clear\n",
      "3987    6/15/2012 3:00    13.8  ...     102.17    Clear\n",
      "3988    6/15/2012 4:00    13.0  ...     102.19    Clear\n",
      "3989    6/15/2012 5:00    13.3  ...     102.27    Clear\n",
      "3990    6/15/2012 6:00    15.6  ...     102.32    Clear\n",
      "3991    6/15/2012 7:00    16.8  ...     102.38    Clear\n",
      "4007   6/15/2012 23:00    20.1  ...     102.06    Clear\n",
      "4008    6/16/2012 0:00    17.5  ...     102.05    Clear\n",
      "4010    6/16/2012 2:00    15.3  ...     102.03    Clear\n",
      "4029   6/16/2012 21:00    20.8  ...     101.60    Clear\n",
      "4035    6/17/2012 3:00    18.4  ...     101.45    Clear\n",
      "4082    6/19/2012 2:00    19.1  ...     101.11    Clear\n",
      "4083    6/19/2012 3:00    18.3  ...     101.12    Clear\n",
      "4106    6/20/2012 2:00    24.1  ...     100.88    Clear\n",
      "4117   6/20/2012 13:00    29.7  ...     100.91    Clear\n",
      "4118   6/20/2012 14:00    31.7  ...     100.83    Clear\n",
      "4126   6/20/2012 22:00    28.1  ...     100.57    Clear\n",
      "4129    6/21/2012 1:00    25.9  ...     100.60    Clear\n",
      "4138   6/21/2012 10:00    29.4  ...     100.47    Clear\n",
      "4146   6/21/2012 18:00    31.1  ...     100.06    Clear\n",
      "4147   6/21/2012 19:00    30.3  ...     100.08    Clear\n",
      "4151   6/21/2012 23:00    26.7  ...     100.09    Clear\n",
      "4152    6/22/2012 0:00    25.8  ...     100.07    Clear\n",
      "4196   6/23/2012 20:00    23.5  ...     100.88    Clear\n",
      "4197   6/23/2012 21:00    20.1  ...     100.95    Clear\n",
      "4199   6/23/2012 23:00    18.8  ...     101.01    Clear\n",
      "4200    6/24/2012 0:00    18.3  ...     101.00    Clear\n",
      "4201    6/24/2012 1:00    17.6  ...     101.02    Clear\n",
      "4202    6/24/2012 2:00    14.1  ...     101.01    Clear\n",
      "4203    6/24/2012 3:00    14.9  ...     101.02    Clear\n",
      "4204    6/24/2012 4:00    14.4  ...     101.04    Clear\n",
      "4205    6/24/2012 5:00    14.0  ...     101.04    Clear\n",
      "4206    6/24/2012 6:00    17.8  ...     101.04    Clear\n",
      "4207    6/24/2012 7:00    20.0  ...     101.03    Clear\n",
      "4208    6/24/2012 8:00    22.2  ...     101.03    Clear\n",
      "4209    6/24/2012 9:00    23.2  ...     101.00    Clear\n",
      "4210   6/24/2012 10:00    24.3  ...     100.97    Clear\n",
      "4330   6/29/2012 10:00    25.5  ...      99.52    Clear\n",
      "4344    6/30/2012 0:00    23.1  ...      99.63    Clear\n",
      "4345    6/30/2012 1:00    22.6  ...      99.68    Clear\n",
      "4346    6/30/2012 2:00    22.0  ...      99.67    Clear\n",
      "4347    6/30/2012 3:00    21.2  ...      99.66    Clear\n",
      "4348    6/30/2012 4:00    20.5  ...      99.70    Clear\n",
      "4417     7/3/2012 1:00    16.7  ...     100.84    Clear\n",
      "4418     7/3/2012 2:00    17.2  ...     100.83    Clear\n",
      "4419     7/3/2012 3:00    16.9  ...     100.83    Clear\n",
      "4420     7/3/2012 4:00    14.3  ...     100.89    Clear\n",
      "4421     7/3/2012 5:00    17.6  ...     100.84    Clear\n",
      "4422     7/3/2012 6:00    18.5  ...     100.98    Clear\n",
      "4423     7/3/2012 7:00    20.3  ...     100.97    Clear\n",
      "4424     7/3/2012 8:00    21.5  ...     100.96    Clear\n",
      "4462    7/4/2012 22:00    21.1  ...     100.31    Clear\n",
      "4463    7/4/2012 23:00    19.1  ...     100.37    Clear\n",
      "4464     7/5/2012 0:00    17.9  ...     100.38    Clear\n",
      "4484    7/5/2012 20:00    23.4  ...     100.69    Clear\n",
      "4485    7/5/2012 21:00    23.1  ...     100.76    Clear\n",
      "4486    7/5/2012 22:00    21.9  ...     100.76    Clear\n",
      "4487    7/5/2012 23:00    20.8  ...     100.74    Clear\n",
      "4490     7/6/2012 2:00    19.9  ...     100.74    Clear\n",
      "4491     7/6/2012 3:00    19.1  ...     100.76    Clear\n",
      "4492     7/6/2012 4:00    19.3  ...     100.75    Clear\n",
      "4540     7/8/2012 4:00    16.3  ...     100.70    Clear\n",
      "4545     7/8/2012 9:00    20.6  ...     100.81    Clear\n",
      "4546    7/8/2012 10:00    21.6  ...     100.82    Clear\n",
      "4547    7/8/2012 11:00    22.0  ...     100.81    Clear\n",
      "4548    7/8/2012 12:00    23.0  ...     100.79    Clear\n",
      "4556    7/8/2012 20:00    20.3  ...     100.74    Clear\n",
      "4557    7/8/2012 21:00    19.8  ...     100.80    Clear\n",
      "4558    7/8/2012 22:00    17.9  ...     100.81    Clear\n",
      "4559    7/8/2012 23:00    17.1  ...     100.85    Clear\n",
      "4560     7/9/2012 0:00    16.0  ...     100.83    Clear\n",
      "4561     7/9/2012 1:00    14.4  ...     100.84    Clear\n",
      "4562     7/9/2012 2:00    14.9  ...     100.86    Clear\n",
      "4567     7/9/2012 7:00    17.8  ...     101.10    Clear\n",
      "4568     7/9/2012 8:00    18.2  ...     101.13    Clear\n",
      "4569     7/9/2012 9:00    19.2  ...     101.13    Clear\n",
      "4570    7/9/2012 10:00    19.9  ...     101.12    Clear\n",
      "4571    7/9/2012 11:00    21.4  ...     101.09    Clear\n",
      "4572    7/9/2012 12:00    22.2  ...     101.07    Clear\n",
      "4580    7/9/2012 20:00    19.5  ...     101.02    Clear\n",
      "4582    7/9/2012 22:00    17.6  ...     101.04    Clear\n",
      "4584    7/10/2012 0:00    18.2  ...     101.04    Clear\n",
      "4585    7/10/2012 1:00    18.7  ...     101.04    Clear\n",
      "4586    7/10/2012 2:00    17.0  ...     101.06    Clear\n",
      "4587    7/10/2012 3:00    16.6  ...     101.06    Clear\n",
      "4588    7/10/2012 4:00    16.4  ...     101.11    Clear\n",
      "4604   7/10/2012 20:00    21.5  ...     101.26    Clear\n",
      "4606   7/10/2012 22:00    20.2  ...     101.37    Clear\n",
      "4607   7/10/2012 23:00    17.7  ...     101.43    Clear\n",
      "4608    7/11/2012 0:00    18.5  ...     101.45    Clear\n",
      "4609    7/11/2012 1:00    15.5  ...     101.50    Clear\n",
      "4610    7/11/2012 2:00    14.9  ...     101.52    Clear\n",
      "4611    7/11/2012 3:00    15.1  ...     101.55    Clear\n",
      "4612    7/11/2012 4:00    13.5  ...     101.60    Clear\n",
      "4613    7/11/2012 5:00    13.1  ...     101.66    Clear\n",
      "4614    7/11/2012 6:00    15.4  ...     101.71    Clear\n",
      "4615    7/11/2012 7:00    18.2  ...     101.73    Clear\n",
      "4616    7/11/2012 8:00    20.4  ...     101.75    Clear\n",
      "4617    7/11/2012 9:00    22.5  ...     101.73    Clear\n",
      "4631   7/11/2012 23:00    22.8  ...     101.50    Clear\n",
      "4632    7/12/2012 0:00    21.8  ...     101.50    Clear\n",
      "4633    7/12/2012 1:00    18.5  ...     101.50    Clear\n",
      "4634    7/12/2012 2:00    20.6  ...     101.49    Clear\n",
      "4635    7/12/2012 3:00    20.6  ...     101.50    Clear\n",
      "4660    7/13/2012 4:00    20.8  ...     101.49    Clear\n",
      "4671   7/13/2012 15:00    31.9  ...     101.46    Clear\n",
      "4672   7/13/2012 16:00    31.6  ...     101.40    Clear\n",
      "4674   7/13/2012 18:00    30.9  ...     101.33    Clear\n",
      "4678   7/13/2012 22:00    26.6  ...     101.37    Clear\n",
      "4679   7/13/2012 23:00    26.0  ...     101.38    Clear\n",
      "4680    7/14/2012 0:00    25.2  ...     101.38    Clear\n",
      "4681    7/14/2012 1:00    25.0  ...     101.37    Clear\n",
      "4682    7/14/2012 2:00    24.2  ...     101.34    Clear\n",
      "4683    7/14/2012 3:00    23.3  ...     101.35    Clear\n",
      "4684    7/14/2012 4:00    23.1  ...     101.40    Clear\n",
      "4701   7/14/2012 21:00    28.3  ...     101.28    Clear\n",
      "4702   7/14/2012 22:00    27.8  ...     101.29    Clear\n",
      "4703   7/14/2012 23:00    26.0  ...     101.31    Clear\n",
      "4704    7/15/2012 0:00    25.5  ...     101.32    Clear\n",
      "4705    7/15/2012 1:00    25.2  ...     101.29    Clear\n",
      "4707    7/15/2012 3:00    24.1  ...     101.26    Clear\n",
      "4779    7/18/2012 3:00    19.3  ...     100.33    Clear\n",
      "4797   7/18/2012 21:00    19.4  ...     101.06    Clear\n",
      "4798   7/18/2012 22:00    17.5  ...     101.06    Clear\n",
      "4799   7/18/2012 23:00    15.7  ...     101.09    Clear\n",
      "4800    7/19/2012 0:00    14.4  ...     101.14    Clear\n",
      "4801    7/19/2012 1:00    14.2  ...     101.11    Clear\n",
      "4802    7/19/2012 2:00    14.6  ...     101.11    Clear\n",
      "4803    7/19/2012 3:00    13.8  ...     101.09    Clear\n",
      "4807    7/19/2012 7:00    16.7  ...     101.27    Clear\n",
      "4824    7/20/2012 0:00    17.2  ...     101.45    Clear\n",
      "4825    7/20/2012 1:00    16.0  ...     101.48    Clear\n",
      "4826    7/20/2012 2:00    14.6  ...     101.46    Clear\n",
      "4827    7/20/2012 3:00    14.2  ...     101.44    Clear\n",
      "4828    7/20/2012 4:00    14.4  ...     101.49    Clear\n",
      "4829    7/20/2012 5:00    14.5  ...     101.51    Clear\n",
      "4845   7/20/2012 21:00    19.6  ...     101.36    Clear\n",
      "4846   7/20/2012 22:00    18.1  ...     101.37    Clear\n",
      "4847   7/20/2012 23:00    18.2  ...     101.36    Clear\n",
      "4848    7/21/2012 0:00    17.2  ...     101.40    Clear\n",
      "4849    7/21/2012 1:00    17.2  ...     101.40    Clear\n",
      "4850    7/21/2012 2:00    15.1  ...     101.39    Clear\n",
      "4851    7/21/2012 3:00    14.0  ...     101.37    Clear\n",
      "4852    7/21/2012 4:00    14.6  ...     101.40    Clear\n",
      "4853    7/21/2012 5:00    14.5  ...     101.38    Clear\n",
      "4854    7/21/2012 6:00    16.9  ...     101.40    Clear\n",
      "4855    7/21/2012 7:00    20.0  ...     101.43    Clear\n",
      "4894   7/22/2012 22:00    25.8  ...     101.01    Clear\n",
      "4943   7/24/2012 23:00    18.0  ...     100.50    Clear\n",
      "4944    7/25/2012 0:00    16.6  ...     100.55    Clear\n",
      "4945    7/25/2012 1:00    15.8  ...     100.56    Clear\n",
      "4946    7/25/2012 2:00    15.4  ...     100.59    Clear\n",
      "4947    7/25/2012 3:00    15.4  ...     100.65    Clear\n",
      "4948    7/25/2012 4:00    14.5  ...     100.69    Clear\n",
      "4949    7/25/2012 5:00    13.8  ...     100.71    Clear\n",
      "4950    7/25/2012 6:00    16.2  ...     100.76    Clear\n",
      "4951    7/25/2012 7:00    17.5  ...     100.81    Clear\n",
      "4952    7/25/2012 8:00    18.8  ...     100.80    Clear\n",
      "4953    7/25/2012 9:00    19.6  ...     100.79    Clear\n",
      "4954   7/25/2012 10:00    21.1  ...     100.88    Clear\n",
      "5040    7/29/2012 0:00    18.5  ...     101.18    Clear\n",
      "5041    7/29/2012 1:00    18.4  ...     101.16    Clear\n",
      "5042    7/29/2012 2:00    17.7  ...     101.16    Clear\n",
      "5063   7/29/2012 23:00    21.2  ...     101.18    Clear\n",
      "5066    7/30/2012 2:00    20.6  ...     101.15    Clear\n",
      "5067    7/30/2012 3:00    20.5  ...     101.13    Clear\n",
      "5072    7/30/2012 8:00    22.4  ...     101.31    Clear\n",
      "5085   7/30/2012 21:00    24.3  ...     101.00    Clear\n",
      "5086   7/30/2012 22:00    23.8  ...     101.00    Clear\n",
      "5091    7/31/2012 3:00    20.1  ...     101.02    Clear\n",
      "5095    7/31/2012 7:00    22.6  ...     101.03    Clear\n",
      "5096    7/31/2012 8:00    24.2  ...     101.02    Clear\n",
      "5113     8/1/2012 1:00    21.0  ...     100.54    Clear\n",
      "5141     8/2/2012 5:00    21.3  ...     100.55    Clear\n",
      "5142     8/2/2012 6:00    21.7  ...     100.55    Clear\n",
      "5168     8/3/2012 8:00    24.1  ...     100.87    Clear\n",
      "5177    8/3/2012 17:00    28.0  ...     101.14    Clear\n",
      "5178    8/3/2012 18:00    27.2  ...     101.18    Clear\n",
      "5179    8/3/2012 19:00    25.5  ...     101.24    Clear\n",
      "5180    8/3/2012 20:00    23.9  ...     101.31    Clear\n",
      "5181    8/3/2012 21:00    22.0  ...     101.39    Clear\n",
      "5182    8/3/2012 22:00    23.3  ...     101.42    Clear\n",
      "5183    8/3/2012 23:00    23.1  ...     101.49    Clear\n",
      "5184     8/4/2012 0:00    21.3  ...     101.51    Clear\n",
      "5195    8/4/2012 11:00    28.3  ...     101.69    Clear\n",
      "5196    8/4/2012 12:00    30.1  ...     101.62    Clear\n",
      "5197    8/4/2012 13:00    31.2  ...     101.56    Clear\n",
      "5198    8/4/2012 14:00    32.0  ...     101.48    Clear\n",
      "5199    8/4/2012 15:00    32.8  ...     101.39    Clear\n",
      "5200    8/4/2012 16:00    32.5  ...     101.34    Clear\n",
      "5201    8/4/2012 17:00    32.5  ...     101.32    Clear\n",
      "5204    8/4/2012 20:00    29.2  ...     101.23    Clear\n",
      "5207    8/4/2012 23:00    26.2  ...     101.27    Clear\n",
      "5208     8/5/2012 0:00    25.7  ...     101.24    Clear\n",
      "5209     8/5/2012 1:00    25.1  ...     101.19    Clear\n",
      "5210     8/5/2012 2:00    24.2  ...     101.16    Clear\n",
      "5231    8/5/2012 23:00    23.1  ...     100.58    Clear\n",
      "5232     8/6/2012 0:00    21.7  ...     100.67    Clear\n",
      "5234     8/6/2012 2:00    19.6  ...     100.77    Clear\n",
      "5235     8/6/2012 3:00    18.7  ...     100.79    Clear\n",
      "5236     8/6/2012 4:00    17.7  ...     100.86    Clear\n",
      "5237     8/6/2012 5:00    16.6  ...     100.95    Clear\n",
      "5238     8/6/2012 6:00    18.0  ...     101.01    Clear\n",
      "5251    8/6/2012 19:00    21.6  ...     101.02    Clear\n",
      "5252    8/6/2012 20:00    22.1  ...     101.03    Clear\n",
      "5253    8/6/2012 21:00    21.7  ...     101.03    Clear\n",
      "5254    8/6/2012 22:00    20.1  ...     101.04    Clear\n",
      "5255    8/6/2012 23:00    20.6  ...     101.05    Clear\n",
      "5256     8/7/2012 0:00    19.6  ...     101.04    Clear\n",
      "5257     8/7/2012 1:00    19.3  ...     101.02    Clear\n",
      "5258     8/7/2012 2:00    18.9  ...     100.99    Clear\n",
      "5259     8/7/2012 3:00    18.2  ...     100.96    Clear\n",
      "5260     8/7/2012 4:00    18.5  ...     100.95    Clear\n",
      "5261     8/7/2012 5:00    16.6  ...     100.99    Clear\n",
      "5262     8/7/2012 6:00    17.9  ...     101.02    Clear\n",
      "5283     8/8/2012 3:00    17.4  ...     100.92    Clear\n",
      "5284     8/8/2012 4:00    17.2  ...     100.97    Clear\n",
      "5286     8/8/2012 6:00    18.1  ...     101.03    Clear\n",
      "5287     8/8/2012 7:00    19.3  ...     101.09    Clear\n",
      "5400    8/13/2012 0:00    21.3  ...     100.68    Clear\n",
      "5401    8/13/2012 1:00    20.9  ...     100.68    Clear\n",
      "5469   8/15/2012 21:00    20.4  ...     100.70    Clear\n",
      "5472    8/16/2012 0:00    18.9  ...     100.76    Clear\n",
      "5490   8/16/2012 18:00    24.9  ...     100.49    Clear\n",
      "5497    8/17/2012 1:00    21.1  ...     100.47    Clear\n",
      "5498    8/17/2012 2:00    18.9  ...     100.44    Clear\n",
      "5499    8/17/2012 3:00    18.7  ...     100.37    Clear\n",
      "5501    8/17/2012 5:00    17.6  ...     100.30    Clear\n",
      "5521    8/18/2012 1:00    17.7  ...     100.51    Clear\n",
      "5540   8/18/2012 20:00    18.6  ...     100.88    Clear\n",
      "5541   8/18/2012 21:00    15.9  ...     100.88    Clear\n",
      "5543   8/18/2012 23:00    16.6  ...     100.91    Clear\n",
      "5544    8/19/2012 0:00    16.0  ...     100.96    Clear\n",
      "5545    8/19/2012 1:00    16.6  ...     100.98    Clear\n",
      "5546    8/19/2012 2:00    16.3  ...     100.96    Clear\n",
      "5547    8/19/2012 3:00    15.8  ...     100.94    Clear\n",
      "5548    8/19/2012 4:00    13.3  ...     100.94    Clear\n",
      "5552    8/19/2012 8:00    17.5  ...     101.06    Clear\n",
      "5566   8/19/2012 22:00    17.6  ...     100.79    Clear\n",
      "5570    8/20/2012 2:00    15.3  ...     100.75    Clear\n",
      "5577    8/20/2012 9:00    20.2  ...     100.78    Clear\n",
      "5584   8/20/2012 16:00    24.4  ...     100.56    Clear\n",
      "5588   8/20/2012 20:00    18.4  ...     100.75    Clear\n",
      "5631   8/22/2012 15:00    25.7  ...     101.33    Clear\n",
      "5637   8/22/2012 21:00    22.5  ...     101.29    Clear\n",
      "5647    8/23/2012 7:00    20.3  ...     101.37    Clear\n",
      "5660   8/23/2012 20:00    21.8  ...     101.41    Clear\n",
      "5672    8/24/2012 8:00    20.7  ...     101.80    Clear\n",
      "5698   8/25/2012 10:00    26.4  ...     101.97    Clear\n",
      "5701   8/25/2012 13:00    30.1  ...     101.84    Clear\n",
      "5709   8/25/2012 21:00    25.3  ...     101.76    Clear\n",
      "5710   8/25/2012 22:00    23.9  ...     101.80    Clear\n",
      "5711   8/25/2012 23:00    24.0  ...     101.83    Clear\n",
      "5712    8/26/2012 0:00    22.1  ...     101.85    Clear\n",
      "5713    8/26/2012 1:00    22.4  ...     101.89    Clear\n",
      "5714    8/26/2012 2:00    23.4  ...     101.90    Clear\n",
      "5715    8/26/2012 3:00    23.5  ...     101.91    Clear\n",
      "5716    8/26/2012 4:00    23.2  ...     101.95    Clear\n",
      "5717    8/26/2012 5:00    21.2  ...     102.02    Clear\n",
      "5718    8/26/2012 6:00    20.9  ...     102.06    Clear\n",
      "5719    8/26/2012 7:00    22.9  ...     102.10    Clear\n",
      "5784    8/29/2012 0:00    12.0  ...     101.06    Clear\n",
      "5787    8/29/2012 3:00    11.0  ...     101.06    Clear\n",
      "5788    8/29/2012 4:00    10.5  ...     101.06    Clear\n",
      "5789    8/29/2012 5:00    10.5  ...     101.07    Clear\n",
      "5790    8/29/2012 6:00    12.0  ...     101.10    Clear\n",
      "5791    8/29/2012 7:00    16.0  ...     101.13    Clear\n",
      "5792    8/29/2012 8:00    18.0  ...     101.13    Clear\n",
      "5793    8/29/2012 9:00    19.6  ...     101.11    Clear\n",
      "5794   8/29/2012 10:00    20.7  ...     101.09    Clear\n",
      "5795   8/29/2012 11:00    21.9  ...     101.07    Clear\n",
      "5797   8/29/2012 13:00    23.5  ...     100.98    Clear\n",
      "5798   8/29/2012 14:00    24.7  ...     100.92    Clear\n",
      "5802   8/29/2012 18:00    22.5  ...     100.87    Clear\n",
      "5803   8/29/2012 19:00    21.7  ...     100.89    Clear\n",
      "5804   8/29/2012 20:00    19.7  ...     100.92    Clear\n",
      "5805   8/29/2012 21:00    19.7  ...     100.93    Clear\n",
      "5806   8/29/2012 22:00    19.5  ...     100.93    Clear\n",
      "5807   8/29/2012 23:00    18.3  ...     100.97    Clear\n",
      "5808    8/30/2012 0:00    17.5  ...     100.96    Clear\n",
      "5809    8/30/2012 1:00    17.0  ...     100.92    Clear\n",
      "5812    8/30/2012 4:00    15.1  ...     100.96    Clear\n",
      "5832    8/31/2012 0:00    23.4  ...     100.55    Clear\n",
      "5855   8/31/2012 23:00    20.8  ...     100.84    Clear\n",
      "5860     9/1/2012 4:00    16.3  ...     101.21    Clear\n",
      "5865     9/1/2012 9:00    20.4  ...     101.59    Clear\n",
      "5866    9/1/2012 10:00    22.0  ...     101.60    Clear\n",
      "5868    9/1/2012 12:00    23.2  ...     101.57    Clear\n",
      "5869    9/1/2012 13:00    23.6  ...     101.54    Clear\n",
      "5870    9/1/2012 14:00    23.5  ...     101.47    Clear\n",
      "5871    9/1/2012 15:00    24.3  ...     101.44    Clear\n",
      "5872    9/1/2012 16:00    24.2  ...     101.43    Clear\n",
      "5873    9/1/2012 17:00    24.0  ...     101.39    Clear\n",
      "5874    9/1/2012 18:00    22.7  ...     101.41    Clear\n",
      "5875    9/1/2012 19:00    20.9  ...     101.45    Clear\n",
      "5876    9/1/2012 20:00    18.8  ...     101.46    Clear\n",
      "5877    9/1/2012 21:00    18.5  ...     101.47    Clear\n",
      "5878    9/1/2012 22:00    17.5  ...     101.46    Clear\n",
      "5880     9/2/2012 0:00    16.1  ...     101.47    Clear\n",
      "5881     9/2/2012 1:00    14.0  ...     101.47    Clear\n",
      "5882     9/2/2012 2:00    13.5  ...     101.47    Clear\n",
      "5900    9/2/2012 20:00    21.2  ...     101.52    Clear\n",
      "5903    9/2/2012 23:00    18.7  ...     101.57    Clear\n",
      "5904     9/3/2012 0:00    17.5  ...     101.60    Clear\n",
      "5908     9/3/2012 4:00    13.4  ...     101.63    Clear\n",
      "5996    9/6/2012 20:00    22.5  ...     100.47    Clear\n",
      "6000     9/7/2012 0:00    18.1  ...     100.62    Clear\n",
      "6001     9/7/2012 1:00    18.7  ...     100.62    Clear\n",
      "6003     9/7/2012 3:00    18.5  ...     100.68    Clear\n",
      "6004     9/7/2012 4:00    18.3  ...     100.68    Clear\n",
      "6053     9/9/2012 5:00    11.5  ...     100.44    Clear\n",
      "6092   9/10/2012 20:00    10.9  ...     101.54    Clear\n",
      "6093   9/10/2012 21:00     9.8  ...     101.55    Clear\n",
      "6094   9/10/2012 22:00     9.7  ...     101.56    Clear\n",
      "6095   9/10/2012 23:00     9.3  ...     101.56    Clear\n",
      "6096    9/11/2012 0:00     8.4  ...     101.57    Clear\n",
      "6097    9/11/2012 1:00     8.4  ...     101.58    Clear\n",
      "6098    9/11/2012 2:00     8.4  ...     101.60    Clear\n",
      "6099    9/11/2012 3:00     9.1  ...     101.64    Clear\n",
      "6100    9/11/2012 4:00     9.2  ...     101.70    Clear\n",
      "6101    9/11/2012 5:00     6.9  ...     101.75    Clear\n",
      "6117   9/11/2012 21:00    19.1  ...     101.76    Clear\n",
      "6118   9/11/2012 22:00    18.4  ...     101.78    Clear\n",
      "6119   9/11/2012 23:00    17.8  ...     101.80    Clear\n",
      "6120    9/12/2012 0:00    17.5  ...     101.82    Clear\n",
      "6121    9/12/2012 1:00    17.2  ...     101.85    Clear\n",
      "6122    9/12/2012 2:00    14.5  ...     101.86    Clear\n",
      "6123    9/12/2012 3:00    13.2  ...     101.90    Clear\n",
      "6124    9/12/2012 4:00    13.7  ...     101.91    Clear\n",
      "6125    9/12/2012 5:00    13.1  ...     101.96    Clear\n",
      "6126    9/12/2012 6:00    13.5  ...     102.02    Clear\n",
      "6127    9/12/2012 7:00    15.8  ...     102.02    Clear\n",
      "6128    9/12/2012 8:00    17.4  ...     102.04    Clear\n",
      "6129    9/12/2012 9:00    19.6  ...     102.05    Clear\n",
      "6131   9/12/2012 11:00    23.9  ...     101.98    Clear\n",
      "6141   9/12/2012 21:00    22.2  ...     101.91    Clear\n",
      "6147    9/13/2012 3:00    15.7  ...     101.96    Clear\n",
      "6148    9/13/2012 4:00    15.5  ...     101.96    Clear\n",
      "6149    9/13/2012 5:00    14.9  ...     102.00    Clear\n",
      "6164   9/13/2012 20:00    23.2  ...     101.74    Clear\n",
      "6167   9/13/2012 23:00    20.7  ...     101.72    Clear\n",
      "6168    9/14/2012 0:00    19.5  ...     101.72    Clear\n",
      "6169    9/14/2012 1:00    16.6  ...     101.71    Clear\n",
      "6170    9/14/2012 2:00    18.2  ...     101.69    Clear\n",
      "6171    9/14/2012 3:00    16.4  ...     101.67    Clear\n",
      "6172    9/14/2012 4:00    15.9  ...     101.66    Clear\n",
      "6214   9/15/2012 22:00     8.5  ...     101.51    Clear\n",
      "6215   9/15/2012 23:00     7.9  ...     101.50    Clear\n",
      "6216    9/16/2012 0:00     6.6  ...     101.52    Clear\n",
      "6217    9/16/2012 1:00     6.1  ...     101.49    Clear\n",
      "6218    9/16/2012 2:00     6.5  ...     101.46    Clear\n",
      "6219    9/16/2012 3:00     6.7  ...     101.44    Clear\n",
      "6220    9/16/2012 4:00     7.3  ...     101.43    Clear\n",
      "6221    9/16/2012 5:00     4.9  ...     101.45    Clear\n",
      "6222    9/16/2012 6:00     5.8  ...     101.53    Clear\n",
      "6223    9/16/2012 7:00     8.7  ...     101.55    Clear\n",
      "6224    9/16/2012 8:00    11.7  ...     101.58    Clear\n",
      "6231   9/16/2012 15:00    16.7  ...     101.25    Clear\n",
      "6232   9/16/2012 16:00    16.6  ...     101.20    Clear\n",
      "6233   9/16/2012 17:00    16.6  ...     101.17    Clear\n",
      "6234   9/16/2012 18:00    15.5  ...     101.16    Clear\n",
      "6236   9/16/2012 20:00    12.5  ...     101.18    Clear\n",
      "6237   9/16/2012 21:00    12.8  ...     101.18    Clear\n",
      "6238   9/16/2012 22:00    13.1  ...     101.20    Clear\n",
      "6239   9/16/2012 23:00    12.1  ...     101.21    Clear\n",
      "6240    9/17/2012 0:00    11.5  ...     101.20    Clear\n",
      "6241    9/17/2012 1:00    10.1  ...     101.21    Clear\n",
      "6242    9/17/2012 2:00    10.1  ...     101.18    Clear\n",
      "6254   9/17/2012 14:00    24.6  ...     100.95    Clear\n",
      "6255   9/17/2012 15:00    25.2  ...     100.90    Clear\n",
      "6257   9/17/2012 17:00    24.4  ...     100.87    Clear\n",
      "6266    9/18/2012 2:00    16.6  ...     100.75    Clear\n",
      "6306   9/19/2012 18:00    10.6  ...     101.68    Clear\n",
      "6307   9/19/2012 19:00    10.0  ...     101.75    Clear\n",
      "6308   9/19/2012 20:00     8.8  ...     101.81    Clear\n",
      "6309   9/19/2012 21:00     9.5  ...     101.83    Clear\n",
      "6310   9/19/2012 22:00     8.5  ...     101.85    Clear\n",
      "6311   9/19/2012 23:00     9.8  ...     101.88    Clear\n",
      "6312    9/20/2012 0:00     7.2  ...     101.88    Clear\n",
      "6313    9/20/2012 1:00     8.4  ...     101.92    Clear\n",
      "6314    9/20/2012 2:00     9.0  ...     101.89    Clear\n",
      "6315    9/20/2012 3:00     8.0  ...     101.91    Clear\n",
      "6316    9/20/2012 4:00     8.3  ...     101.91    Clear\n",
      "6317    9/20/2012 5:00     7.7  ...     101.95    Clear\n",
      "6318    9/20/2012 6:00     7.7  ...     101.97    Clear\n",
      "6319    9/20/2012 7:00     9.6  ...     101.95    Clear\n",
      "6320    9/20/2012 8:00    11.7  ...     101.94    Clear\n",
      "6321    9/20/2012 9:00    12.8  ...     101.85    Clear\n",
      "6322   9/20/2012 10:00    15.2  ...     101.76    Clear\n",
      "6323   9/20/2012 11:00    16.2  ...     101.65    Clear\n",
      "6324   9/20/2012 12:00    17.6  ...     101.56    Clear\n",
      "6327   9/20/2012 15:00    19.1  ...     101.39    Clear\n",
      "6328   9/20/2012 16:00    18.7  ...     101.31    Clear\n",
      "6329   9/20/2012 17:00    18.0  ...     101.31    Clear\n",
      "6330   9/20/2012 18:00    16.6  ...     101.26    Clear\n",
      "6331   9/20/2012 19:00    16.2  ...     101.27    Clear\n",
      "6333   9/20/2012 21:00    15.4  ...     101.25    Clear\n",
      "6334   9/20/2012 22:00    13.4  ...     101.25    Clear\n",
      "6410    9/24/2012 2:00     6.9  ...     101.37    Clear\n",
      "6411    9/24/2012 3:00     5.7  ...     101.38    Clear\n",
      "6451   9/25/2012 19:00    16.6  ...     101.02    Clear\n",
      "6483    9/27/2012 3:00     6.3  ...     101.63    Clear\n",
      "6484    9/27/2012 4:00     5.1  ...     101.69    Clear\n",
      "6485    9/27/2012 5:00     6.0  ...     101.76    Clear\n",
      "6486    9/27/2012 6:00     6.4  ...     101.86    Clear\n",
      "6487    9/27/2012 7:00     7.5  ...     101.91    Clear\n",
      "6488    9/27/2012 8:00     9.0  ...     101.99    Clear\n",
      "6499   9/27/2012 19:00    10.6  ...     102.00    Clear\n",
      "6501   9/27/2012 21:00     9.4  ...     102.01    Clear\n",
      "6502   9/27/2012 22:00     9.3  ...     101.99    Clear\n",
      "6503   9/27/2012 23:00     9.2  ...     101.98    Clear\n",
      "6504    9/28/2012 0:00     9.2  ...     101.96    Clear\n",
      "6507    9/28/2012 3:00     7.2  ...     101.92    Clear\n",
      "6508    9/28/2012 4:00     6.0  ...     101.91    Clear\n",
      "6604    10/2/2012 4:00    12.0  ...     100.85    Clear\n",
      "6622   10/2/2012 22:00    14.2  ...     101.28    Clear\n",
      "6623   10/2/2012 23:00    11.4  ...     101.31    Clear\n",
      "6624    10/3/2012 0:00    11.9  ...     101.30    Clear\n",
      "6625    10/3/2012 1:00    11.3  ...     101.33    Clear\n",
      "6626    10/3/2012 2:00    11.3  ...     101.32    Clear\n",
      "6627    10/3/2012 3:00    11.6  ...     101.33    Clear\n",
      "6628    10/3/2012 4:00    11.5  ...     101.37    Clear\n",
      "6674    10/5/2012 2:00    15.7  ...     100.92    Clear\n",
      "6675    10/5/2012 3:00    14.7  ...     100.94    Clear\n",
      "6676    10/5/2012 4:00    14.4  ...     100.96    Clear\n",
      "6677    10/5/2012 5:00    13.8  ...     100.96    Clear\n",
      "6724    10/7/2012 4:00     5.3  ...     101.09    Clear\n",
      "6747    10/8/2012 3:00     5.1  ...     101.52    Clear\n",
      "6748    10/8/2012 4:00     3.6  ...     101.58    Clear\n",
      "6749    10/8/2012 5:00     2.8  ...     101.62    Clear\n",
      "6753    10/8/2012 9:00     6.6  ...     101.94    Clear\n",
      "6766   10/8/2012 22:00     8.0  ...     102.08    Clear\n",
      "6767   10/8/2012 23:00     7.4  ...     102.06    Clear\n",
      "6768    10/9/2012 0:00     5.8  ...     102.06    Clear\n",
      "6769    10/9/2012 1:00     5.8  ...     102.08    Clear\n",
      "6770    10/9/2012 2:00     5.9  ...     102.06    Clear\n",
      "6771    10/9/2012 3:00     5.9  ...     102.02    Clear\n",
      "6772    10/9/2012 4:00     4.3  ...     102.04    Clear\n",
      "6776    10/9/2012 8:00     8.4  ...     102.08    Clear\n",
      "6777    10/9/2012 9:00    10.3  ...     102.06    Clear\n",
      "6778   10/9/2012 10:00    12.5  ...     102.00    Clear\n",
      "6858  10/12/2012 18:00     4.0  ...     102.21    Clear\n",
      "6859  10/12/2012 19:00     2.5  ...     102.28    Clear\n",
      "6860  10/12/2012 20:00     1.2  ...     102.35    Clear\n",
      "6861  10/12/2012 21:00     0.7  ...     102.41    Clear\n",
      "6862  10/12/2012 22:00     0.0  ...     102.47    Clear\n",
      "6869   10/13/2012 5:00    -1.9  ...     102.53    Clear\n",
      "6956  10/16/2012 20:00     3.7  ...     100.63    Clear\n",
      "6957  10/16/2012 21:00     3.0  ...     100.66    Clear\n",
      "6958  10/16/2012 22:00     4.1  ...     100.73    Clear\n",
      "6959  10/16/2012 23:00     1.6  ...     100.75    Clear\n",
      "6960   10/17/2012 0:00     3.8  ...     100.80    Clear\n",
      "6961   10/17/2012 1:00     2.8  ...     100.86    Clear\n",
      "6962   10/17/2012 2:00     1.1  ...     100.91    Clear\n",
      "6967   10/17/2012 7:00     3.3  ...     101.02    Clear\n",
      "7051  10/20/2012 19:00    11.6  ...     100.04    Clear\n",
      "7085   10/22/2012 5:00     7.4  ...     100.90    Clear\n",
      "7086   10/22/2012 6:00     7.2  ...     100.95    Clear\n",
      "7099  10/22/2012 19:00    11.1  ...     101.21    Clear\n",
      "7101  10/22/2012 21:00     8.4  ...     101.29    Clear\n",
      "7103  10/22/2012 23:00     6.4  ...     101.34    Clear\n",
      "7104   10/23/2012 0:00     6.2  ...     101.36    Clear\n",
      "7105   10/23/2012 1:00     5.8  ...     101.38    Clear\n",
      "7106   10/23/2012 2:00     4.9  ...     101.40    Clear\n",
      "7107   10/23/2012 3:00     5.1  ...     101.42    Clear\n",
      "7108   10/23/2012 4:00     5.1  ...     101.47    Clear\n",
      "7109   10/23/2012 5:00     5.4  ...     101.54    Clear\n",
      "7127  10/23/2012 23:00     7.7  ...     101.79    Clear\n",
      "7128   10/24/2012 0:00     7.3  ...     101.81    Clear\n",
      "7129   10/24/2012 1:00     5.1  ...     101.83    Clear\n",
      "7130   10/24/2012 2:00     4.0  ...     101.90    Clear\n",
      "7131   10/24/2012 3:00     4.9  ...     101.90    Clear\n",
      "7132   10/24/2012 4:00     2.0  ...     101.91    Clear\n",
      "7133   10/24/2012 5:00     2.6  ...     101.93    Clear\n",
      "7134   10/24/2012 6:00     1.9  ...     101.94    Clear\n",
      "7135   10/24/2012 7:00     2.6  ...     101.99    Clear\n",
      "7136   10/24/2012 8:00     5.8  ...     102.03    Clear\n",
      "7171  10/25/2012 19:00    11.4  ...     101.53    Clear\n",
      "7172  10/25/2012 20:00    11.0  ...     101.51    Clear\n",
      "7173  10/25/2012 21:00    10.0  ...     101.51    Clear\n",
      "7174  10/25/2012 22:00     9.8  ...     101.47    Clear\n",
      "7175  10/25/2012 23:00     9.3  ...     101.45    Clear\n",
      "7176   10/26/2012 0:00     8.9  ...     101.47    Clear\n",
      "7179   10/26/2012 3:00     7.7  ...     101.49    Clear\n",
      "7180   10/26/2012 4:00     7.2  ...     101.48    Clear\n",
      "7181   10/26/2012 5:00     7.0  ...     101.52    Clear\n",
      "7182   10/26/2012 6:00     6.9  ...     101.53    Clear\n",
      "7183   10/26/2012 7:00     6.7  ...     101.57    Clear\n",
      "7184   10/26/2012 8:00     9.1  ...     101.60    Clear\n",
      "7185   10/26/2012 9:00    11.7  ...     101.60    Clear\n",
      "7186  10/26/2012 10:00    15.1  ...     101.54    Clear\n",
      "7187  10/26/2012 11:00    18.1  ...     101.51    Clear\n",
      "7188  10/26/2012 12:00    19.8  ...     101.43    Clear\n",
      "7189  10/26/2012 13:00    20.9  ...     101.36    Clear\n",
      "7190  10/26/2012 14:00    21.1  ...     101.36    Clear\n",
      "7191  10/26/2012 15:00    20.4  ...     101.35    Clear\n",
      "7192  10/26/2012 16:00    18.2  ...     101.30    Clear\n",
      "7441    11/6/2012 1:00    -3.6  ...     101.69    Clear\n",
      "7442    11/6/2012 2:00    -4.7  ...     101.72    Clear\n",
      "7443    11/6/2012 3:00    -5.5  ...     101.76    Clear\n",
      "7458   11/6/2012 18:00    -0.9  ...     101.89    Clear\n",
      "7459   11/6/2012 19:00    -0.3  ...     101.93    Clear\n",
      "7460   11/6/2012 20:00    -1.5  ...     101.94    Clear\n",
      "7461   11/6/2012 21:00    -0.7  ...     101.97    Clear\n",
      "7462   11/6/2012 22:00    -0.9  ...     101.98    Clear\n",
      "7463   11/6/2012 23:00    -1.5  ...     101.96    Clear\n",
      "7464    11/7/2012 0:00    -0.6  ...     101.93    Clear\n",
      "7465    11/7/2012 1:00    -0.9  ...     101.90    Clear\n",
      "7466    11/7/2012 2:00    -2.6  ...     101.94    Clear\n",
      "7467    11/7/2012 3:00    -3.6  ...     101.95    Clear\n",
      "7468    11/7/2012 4:00    -4.0  ...     102.02    Clear\n",
      "7469    11/7/2012 5:00    -4.3  ...     101.98    Clear\n",
      "7486   11/7/2012 22:00     0.0  ...     101.58    Clear\n",
      "7514    11/9/2012 2:00    -4.3  ...     101.19    Clear\n",
      "7515    11/9/2012 3:00    -3.6  ...     101.19    Clear\n",
      "7516    11/9/2012 4:00    -3.4  ...     101.20    Clear\n",
      "7543   11/10/2012 7:00    -1.4  ...     102.22    Clear\n",
      "7544   11/10/2012 8:00     0.4  ...     102.32    Clear\n",
      "7545   11/10/2012 9:00     2.0  ...     102.39    Clear\n",
      "7557  11/10/2012 21:00     1.8  ...     102.53    Clear\n",
      "7574  11/11/2012 14:00     6.3  ...     102.08    Clear\n",
      "7579  11/11/2012 19:00     1.9  ...     102.14    Clear\n",
      "7580  11/11/2012 20:00     1.5  ...     102.15    Clear\n",
      "7582  11/11/2012 22:00     1.0  ...     102.07    Clear\n",
      "7583  11/11/2012 23:00     1.1  ...     102.04    Clear\n",
      "7587   11/12/2012 3:00     0.2  ...     101.94    Clear\n",
      "7588   11/12/2012 4:00    -0.3  ...     101.95    Clear\n",
      "7589   11/12/2012 5:00    -0.2  ...     101.91    Clear\n",
      "7625  11/13/2012 17:00     3.7  ...     102.41    Clear\n",
      "7626  11/13/2012 18:00     2.5  ...     102.54    Clear\n",
      "7627  11/13/2012 19:00     0.8  ...     102.60    Clear\n",
      "7628  11/13/2012 20:00    -0.7  ...     102.68    Clear\n",
      "7629  11/13/2012 21:00    -1.0  ...     102.75    Clear\n",
      "7630  11/13/2012 22:00    -0.9  ...     102.81    Clear\n",
      "7631  11/13/2012 23:00    -1.5  ...     102.84    Clear\n",
      "7632   11/14/2012 0:00    -0.1  ...     102.91    Clear\n",
      "7633   11/14/2012 1:00    -0.7  ...     102.91    Clear\n",
      "7634   11/14/2012 2:00    -2.3  ...     102.97    Clear\n",
      "7635   11/14/2012 3:00    -2.4  ...     102.99    Clear\n",
      "7636   11/14/2012 4:00    -4.0  ...     103.01    Clear\n",
      "7637   11/14/2012 5:00    -4.7  ...     103.09    Clear\n",
      "7638   11/14/2012 6:00    -3.6  ...     103.15    Clear\n",
      "7639   11/14/2012 7:00    -5.2  ...     103.25    Clear\n",
      "7640   11/14/2012 8:00    -3.0  ...     103.29    Clear\n",
      "7641   11/14/2012 9:00     0.6  ...     103.31    Clear\n",
      "7642  11/14/2012 10:00     2.4  ...     103.34    Clear\n",
      "7643  11/14/2012 11:00     4.6  ...     103.31    Clear\n",
      "7646  11/14/2012 14:00     5.2  ...     103.15    Clear\n",
      "7647  11/14/2012 15:00     4.6  ...     103.15    Clear\n",
      "7650  11/14/2012 18:00     2.8  ...     103.16    Clear\n",
      "7651  11/14/2012 19:00     2.5  ...     103.17    Clear\n",
      "7652  11/14/2012 20:00     2.1  ...     103.18    Clear\n",
      "7653  11/14/2012 21:00     1.8  ...     103.16    Clear\n",
      "7654  11/14/2012 22:00     1.4  ...     103.15    Clear\n",
      "7655  11/14/2012 23:00     0.4  ...     103.12    Clear\n",
      "7656   11/15/2012 0:00    -1.4  ...     103.10    Clear\n",
      "7660   11/15/2012 4:00    -3.6  ...     103.00    Clear\n",
      "7674  11/15/2012 18:00     1.0  ...     102.54    Clear\n",
      "7675  11/15/2012 19:00     0.5  ...     102.51    Clear\n",
      "7676  11/15/2012 20:00    -0.7  ...     102.46    Clear\n",
      "7677  11/15/2012 21:00    -2.9  ...     102.46    Clear\n",
      "7678  11/15/2012 22:00    -1.7  ...     102.42    Clear\n",
      "7679  11/15/2012 23:00    -4.3  ...     102.44    Clear\n",
      "7680   11/16/2012 0:00    -3.1  ...     102.42    Clear\n",
      "7681   11/16/2012 1:00    -5.3  ...     102.40    Clear\n",
      "7682   11/16/2012 2:00    -4.5  ...     102.42    Clear\n",
      "7683   11/16/2012 3:00    -3.6  ...     102.40    Clear\n",
      "7684   11/16/2012 4:00    -6.7  ...     102.42    Clear\n",
      "7685   11/16/2012 5:00    -6.5  ...     102.48    Clear\n",
      "7704   11/17/2012 0:00    -1.1  ...     102.90    Clear\n",
      "7705   11/17/2012 1:00    -1.3  ...     102.94    Clear\n",
      "7707   11/17/2012 3:00    -2.0  ...     103.13    Clear\n",
      "7708   11/17/2012 4:00    -3.1  ...     103.17    Clear\n",
      "7709   11/17/2012 5:00    -2.2  ...     103.24    Clear\n",
      "7710   11/17/2012 6:00    -2.6  ...     103.28    Clear\n",
      "7721  11/17/2012 17:00     0.9  ...     103.46    Clear\n",
      "7723  11/17/2012 19:00    -2.1  ...     103.51    Clear\n",
      "7724  11/17/2012 20:00    -0.1  ...     103.49    Clear\n",
      "7725  11/17/2012 21:00    -1.4  ...     103.51    Clear\n",
      "7726  11/17/2012 22:00    -1.0  ...     103.54    Clear\n",
      "7727  11/17/2012 23:00    -1.3  ...     103.56    Clear\n",
      "7728   11/18/2012 0:00    -1.6  ...     103.58    Clear\n",
      "7729   11/18/2012 1:00    -3.2  ...     103.59    Clear\n",
      "7730   11/18/2012 2:00    -4.6  ...     103.63    Clear\n",
      "7731   11/18/2012 3:00    -3.9  ...     103.61    Clear\n",
      "7732   11/18/2012 4:00    -4.8  ...     103.59    Clear\n",
      "7733   11/18/2012 5:00    -5.0  ...     103.61    Clear\n",
      "7758   11/19/2012 6:00    -4.3  ...     103.01    Clear\n",
      "7759   11/19/2012 7:00    -4.6  ...     102.99    Clear\n",
      "7761   11/19/2012 9:00    -0.5  ...     102.92    Clear\n",
      "7764  11/19/2012 12:00     4.9  ...     102.72    Clear\n",
      "7769  11/19/2012 17:00     3.0  ...     102.42    Clear\n",
      "7772  11/19/2012 20:00    -1.4  ...     102.29    Clear\n",
      "7774  11/19/2012 22:00    -3.3  ...     102.21    Clear\n",
      "7825   11/22/2012 1:00     1.5  ...     101.83    Clear\n",
      "7826   11/22/2012 2:00     1.3  ...     101.85    Clear\n",
      "7827   11/22/2012 3:00     1.1  ...     101.86    Clear\n",
      "7828   11/22/2012 4:00    -0.9  ...     101.84    Clear\n",
      "7829   11/22/2012 5:00    -1.4  ...     101.85    Clear\n",
      "7830   11/22/2012 6:00    -0.3  ...     101.84    Clear\n",
      "7833   11/22/2012 9:00     3.3  ...     101.81    Clear\n",
      "7834  11/22/2012 10:00     6.4  ...     101.80    Clear\n",
      "7848   11/23/2012 0:00     4.5  ...     101.06    Clear\n",
      "7898   11/25/2012 2:00    -3.3  ...     100.15    Clear\n",
      "7913  11/25/2012 17:00    -3.1  ...     100.27    Clear\n",
      "7914  11/25/2012 18:00    -3.4  ...     100.35    Clear\n",
      "7915  11/25/2012 19:00    -3.7  ...     100.39    Clear\n",
      "7930  11/26/2012 10:00    -3.4  ...     101.25    Clear\n",
      "7931  11/26/2012 11:00    -2.5  ...     101.30    Clear\n",
      "7933  11/26/2012 13:00    -1.0  ...     101.34    Clear\n",
      "7934  11/26/2012 14:00    -0.8  ...     101.38    Clear\n",
      "7935  11/26/2012 15:00    -0.9  ...     101.48    Clear\n",
      "7936  11/26/2012 16:00    -1.8  ...     101.56    Clear\n",
      "7937  11/26/2012 17:00    -3.0  ...     101.67    Clear\n",
      "7938  11/26/2012 18:00    -3.4  ...     101.75    Clear\n",
      "7939  11/26/2012 19:00    -3.8  ...     101.81    Clear\n",
      "7940  11/26/2012 20:00    -4.6  ...     101.85    Clear\n",
      "7941  11/26/2012 21:00    -7.3  ...     101.87    Clear\n",
      "7942  11/26/2012 22:00    -5.4  ...     101.90    Clear\n",
      "7943  11/26/2012 23:00    -5.8  ...     101.94    Clear\n",
      "7944   11/27/2012 0:00    -7.4  ...     101.97    Clear\n",
      "7945   11/27/2012 1:00    -9.0  ...     101.98    Clear\n",
      "7960  11/27/2012 16:00    -0.5  ...     102.08    Clear\n",
      "7961  11/27/2012 17:00    -2.2  ...     102.09    Clear\n",
      "7962  11/27/2012 18:00    -2.8  ...     102.15    Clear\n",
      "7963  11/27/2012 19:00    -2.8  ...     102.16    Clear\n",
      "7964  11/27/2012 20:00    -4.5  ...     102.14    Clear\n",
      "7992   11/29/2012 0:00    -3.9  ...     101.62    Clear\n",
      "7993   11/29/2012 1:00    -5.1  ...     101.71    Clear\n",
      "7994   11/29/2012 2:00    -6.3  ...     101.80    Clear\n",
      "7995   11/29/2012 3:00    -7.4  ...     101.87    Clear\n",
      "7996   11/29/2012 4:00    -8.4  ...     101.86    Clear\n",
      "8016   11/30/2012 0:00   -10.6  ...     102.52    Clear\n",
      "8017   11/30/2012 1:00   -12.0  ...     102.60    Clear\n",
      "8018   11/30/2012 2:00   -13.5  ...     102.72    Clear\n",
      "8019   11/30/2012 3:00   -12.6  ...     102.78    Clear\n",
      "8020   11/30/2012 4:00   -12.4  ...     102.82    Clear\n",
      "8021   11/30/2012 5:00   -13.6  ...     102.90    Clear\n",
      "8040    12/1/2012 0:00   -10.8  ...     103.26    Clear\n",
      "8094    12/3/2012 6:00     1.8  ...     101.58    Clear\n",
      "8295  12/11/2012 15:00    -5.7  ...     101.29    Clear\n",
      "8296  12/11/2012 16:00    -6.1  ...     101.35    Clear\n",
      "8297  12/11/2012 17:00    -6.8  ...     101.45    Clear\n",
      "8298  12/11/2012 18:00    -6.9  ...     101.51    Clear\n",
      "8299  12/11/2012 19:00    -7.9  ...     101.60    Clear\n",
      "8300  12/11/2012 20:00    -7.9  ...     101.68    Clear\n",
      "8301  12/11/2012 21:00    -8.7  ...     101.74    Clear\n",
      "8302  12/11/2012 22:00    -9.1  ...     101.78    Clear\n",
      "8303  12/11/2012 23:00    -8.3  ...     101.84    Clear\n",
      "8304   12/12/2012 0:00    -9.2  ...     101.87    Clear\n",
      "8305   12/12/2012 1:00    -9.4  ...     101.91    Clear\n",
      "8306   12/12/2012 2:00   -10.3  ...     101.96    Clear\n",
      "8307   12/12/2012 3:00    -9.6  ...     102.00    Clear\n",
      "8308   12/12/2012 4:00   -10.1  ...     102.04    Clear\n",
      "8309   12/12/2012 5:00   -10.3  ...     102.06    Clear\n",
      "8310   12/12/2012 6:00    -9.5  ...     102.10    Clear\n",
      "8328   12/13/2012 0:00    -6.1  ...     102.44    Clear\n",
      "8329   12/13/2012 1:00    -4.3  ...     102.49    Clear\n",
      "8330   12/13/2012 2:00    -5.9  ...     102.57    Clear\n",
      "8331   12/13/2012 3:00    -6.1  ...     102.61    Clear\n",
      "8376   12/15/2012 0:00    -5.3  ...     102.18    Clear\n",
      "8377   12/15/2012 1:00    -6.5  ...     102.27    Clear\n",
      "8378   12/15/2012 2:00    -7.1  ...     102.36    Clear\n",
      "8379   12/15/2012 3:00    -8.0  ...     102.41    Clear\n",
      "8380   12/15/2012 4:00    -8.5  ...     102.42    Clear\n",
      "8381   12/15/2012 5:00    -9.3  ...     102.47    Clear\n",
      "8382   12/15/2012 6:00    -9.9  ...     102.58    Clear\n",
      "8383   12/15/2012 7:00   -10.2  ...     102.63    Clear\n",
      "8384   12/15/2012 8:00   -10.7  ...     102.69    Clear\n",
      "8385   12/15/2012 9:00   -10.4  ...     102.74    Clear\n",
      "8389  12/15/2012 13:00    -8.4  ...     102.64    Clear\n",
      "8394  12/15/2012 18:00    -9.1  ...     102.54    Clear\n",
      "8396  12/15/2012 20:00    -8.7  ...     102.50    Clear\n",
      "8599   12/24/2012 7:00   -11.1  ...     101.23    Clear\n",
      "8600   12/24/2012 8:00   -11.0  ...     101.32    Clear\n",
      "8601   12/24/2012 9:00   -10.5  ...     101.41    Clear\n",
      "8610  12/24/2012 18:00   -10.4  ...     101.45    Clear\n",
      "8631  12/25/2012 15:00    -7.1  ...     101.98    Clear\n",
      "8632  12/25/2012 16:00    -7.5  ...     102.03    Clear\n",
      "8633  12/25/2012 17:00    -8.3  ...     102.10    Clear\n",
      "8637  12/25/2012 21:00    -9.7  ...     102.28    Clear\n",
      "8638  12/25/2012 22:00   -10.9  ...     102.34    Clear\n",
      "8639  12/25/2012 23:00   -10.4  ...     102.45    Clear\n",
      "8640   12/26/2012 0:00   -11.8  ...     102.41    Clear\n",
      "8641   12/26/2012 1:00   -11.2  ...     102.42    Clear\n",
      "8642   12/26/2012 2:00   -12.7  ...     102.45    Clear\n",
      "8643   12/26/2012 3:00   -14.2  ...     102.52    Clear\n",
      "8644   12/26/2012 4:00   -13.1  ...     102.55    Clear\n",
      "8645   12/26/2012 5:00   -12.7  ...     102.48    Clear\n",
      "8646   12/26/2012 6:00   -13.4  ...     102.47    Clear\n",
      "8698  12/28/2012 10:00    -6.1  ...     101.27    Clear\n",
      "8713   12/29/2012 1:00   -11.9  ...     101.31    Clear\n",
      "8714   12/29/2012 2:00   -11.8  ...     101.33    Clear\n",
      "8756  12/30/2012 20:00   -13.8  ...     101.52    Clear\n",
      "\n",
      "[1326 rows x 8 columns]\n"
     ]
    }
   ],
   "source": [
    "with pd.option_context('display.max_rows', None,'display.max_columns',5):\n",
    "    print(clear_weather)"
   ]
  },
  {
   "cell_type": "code",
   "execution_count": 19,
   "id": "06acab22-b7a9-4138-92f1-32dfaf31d7c7",
   "metadata": {},
   "outputs": [],
   "source": [
    "#Find the number of times the wind speed was exactly 4 km/hr.\n",
    "wind_speed = df[df['Wind Speed_km/h'] == 4] \n",
    "count = len(wind_speed)"
   ]
  },
  {
   "cell_type": "code",
   "execution_count": 28,
   "id": "91460c3d-79d4-48ff-894b-1dbee9e38208",
   "metadata": {},
   "outputs": [
    {
     "name": "stdout",
     "output_type": "stream",
     "text": [
      "The wind speed was exactly 4 km/hr 474 times.\n"
     ]
    }
   ],
   "source": [
    "print(f'The wind speed was exactly 4 km/hr {count} times.')"
   ]
  },
  {
   "cell_type": "code",
   "execution_count": 29,
   "id": "90460c58-318a-43c9-bedc-1664ffb9501f",
   "metadata": {},
   "outputs": [],
   "source": [
    "#Rename the column \"Weather\" to \"Weather_Condition.\"\n",
    "df.rename(columns ={'Weather':'Weather_Condition'},inplace = True)\n"
   ]
  },
  {
   "cell_type": "code",
   "execution_count": 30,
   "id": "8ccbfe6b-74ac-43af-a9c2-08b4d28681f6",
   "metadata": {},
   "outputs": [
    {
     "data": {
      "text/html": [
       "<div>\n",
       "<style scoped>\n",
       "    .dataframe tbody tr th:only-of-type {\n",
       "        vertical-align: middle;\n",
       "    }\n",
       "\n",
       "    .dataframe tbody tr th {\n",
       "        vertical-align: top;\n",
       "    }\n",
       "\n",
       "    .dataframe thead th {\n",
       "        text-align: right;\n",
       "    }\n",
       "</style>\n",
       "<table border=\"1\" class=\"dataframe\">\n",
       "  <thead>\n",
       "    <tr style=\"text-align: right;\">\n",
       "      <th></th>\n",
       "      <th>Date/Time</th>\n",
       "      <th>Temp_C</th>\n",
       "      <th>Dew Point Temp_C</th>\n",
       "      <th>Rel Hum_%</th>\n",
       "      <th>Wind Speed_km/h</th>\n",
       "      <th>Visibility_km</th>\n",
       "      <th>Press_kPa</th>\n",
       "      <th>Weather_Condition</th>\n",
       "    </tr>\n",
       "  </thead>\n",
       "  <tbody>\n",
       "    <tr>\n",
       "      <th>0</th>\n",
       "      <td>1/1/2012 0:00</td>\n",
       "      <td>-1.8</td>\n",
       "      <td>-3.9</td>\n",
       "      <td>86</td>\n",
       "      <td>4</td>\n",
       "      <td>8.0</td>\n",
       "      <td>101.24</td>\n",
       "      <td>Fog</td>\n",
       "    </tr>\n",
       "    <tr>\n",
       "      <th>1</th>\n",
       "      <td>1/1/2012 1:00</td>\n",
       "      <td>-1.8</td>\n",
       "      <td>-3.7</td>\n",
       "      <td>87</td>\n",
       "      <td>4</td>\n",
       "      <td>8.0</td>\n",
       "      <td>101.24</td>\n",
       "      <td>Fog</td>\n",
       "    </tr>\n",
       "    <tr>\n",
       "      <th>2</th>\n",
       "      <td>1/1/2012 2:00</td>\n",
       "      <td>-1.8</td>\n",
       "      <td>-3.4</td>\n",
       "      <td>89</td>\n",
       "      <td>7</td>\n",
       "      <td>4.0</td>\n",
       "      <td>101.26</td>\n",
       "      <td>Freezing Drizzle,Fog</td>\n",
       "    </tr>\n",
       "    <tr>\n",
       "      <th>3</th>\n",
       "      <td>1/1/2012 3:00</td>\n",
       "      <td>-1.5</td>\n",
       "      <td>-3.2</td>\n",
       "      <td>88</td>\n",
       "      <td>6</td>\n",
       "      <td>4.0</td>\n",
       "      <td>101.27</td>\n",
       "      <td>Freezing Drizzle,Fog</td>\n",
       "    </tr>\n",
       "    <tr>\n",
       "      <th>4</th>\n",
       "      <td>1/1/2012 4:00</td>\n",
       "      <td>-1.5</td>\n",
       "      <td>-3.3</td>\n",
       "      <td>88</td>\n",
       "      <td>7</td>\n",
       "      <td>4.8</td>\n",
       "      <td>101.23</td>\n",
       "      <td>Fog</td>\n",
       "    </tr>\n",
       "  </tbody>\n",
       "</table>\n",
       "</div>"
      ],
      "text/plain": [
       "       Date/Time  Temp_C  Dew Point Temp_C  Rel Hum_%  Wind Speed_km/h  \\\n",
       "0  1/1/2012 0:00    -1.8              -3.9         86                4   \n",
       "1  1/1/2012 1:00    -1.8              -3.7         87                4   \n",
       "2  1/1/2012 2:00    -1.8              -3.4         89                7   \n",
       "3  1/1/2012 3:00    -1.5              -3.2         88                6   \n",
       "4  1/1/2012 4:00    -1.5              -3.3         88                7   \n",
       "\n",
       "   Visibility_km  Press_kPa     Weather_Condition  \n",
       "0            8.0     101.24                   Fog  \n",
       "1            8.0     101.24                   Fog  \n",
       "2            4.0     101.26  Freezing Drizzle,Fog  \n",
       "3            4.0     101.27  Freezing Drizzle,Fog  \n",
       "4            4.8     101.23                   Fog  "
      ]
     },
     "execution_count": 30,
     "metadata": {},
     "output_type": "execute_result"
    }
   ],
   "source": [
    "df.head()"
   ]
  },
  {
   "cell_type": "code",
   "execution_count": 31,
   "id": "2260c8ea-5823-4196-96df-46652cb23e16",
   "metadata": {},
   "outputs": [
    {
     "data": {
      "text/plain": [
       "27.664446721311478"
      ]
     },
     "execution_count": 31,
     "metadata": {},
     "output_type": "execute_result"
    }
   ],
   "source": [
    "#What is the mean visibility of the dataset?\n",
    "df['Visibility_km'].mean()"
   ]
  },
  {
   "cell_type": "code",
   "execution_count": 16,
   "id": "4e688fd5-9f4d-4155-8b01-7262048fb45f",
   "metadata": {},
   "outputs": [
    {
     "data": {
      "text/html": [
       "<div>\n",
       "<style scoped>\n",
       "    .dataframe tbody tr th:only-of-type {\n",
       "        vertical-align: middle;\n",
       "    }\n",
       "\n",
       "    .dataframe tbody tr th {\n",
       "        vertical-align: top;\n",
       "    }\n",
       "\n",
       "    .dataframe thead th {\n",
       "        text-align: right;\n",
       "    }\n",
       "</style>\n",
       "<table border=\"1\" class=\"dataframe\">\n",
       "  <thead>\n",
       "    <tr style=\"text-align: right;\">\n",
       "      <th></th>\n",
       "      <th>Date/Time</th>\n",
       "      <th>Temp_C</th>\n",
       "      <th>Dew Point Temp_C</th>\n",
       "      <th>Rel Hum_%</th>\n",
       "      <th>Wind Speed_km/h</th>\n",
       "      <th>Visibility_km</th>\n",
       "      <th>Press_kPa</th>\n",
       "      <th>Weather</th>\n",
       "    </tr>\n",
       "  </thead>\n",
       "  <tbody>\n",
       "    <tr>\n",
       "      <th>23</th>\n",
       "      <td>1/1/2012 23:00</td>\n",
       "      <td>5.3</td>\n",
       "      <td>2.0</td>\n",
       "      <td>79</td>\n",
       "      <td>30</td>\n",
       "      <td>25.0</td>\n",
       "      <td>99.31</td>\n",
       "      <td>Cloudy</td>\n",
       "    </tr>\n",
       "    <tr>\n",
       "      <th>24</th>\n",
       "      <td>1/2/2012 0:00</td>\n",
       "      <td>5.2</td>\n",
       "      <td>1.5</td>\n",
       "      <td>77</td>\n",
       "      <td>35</td>\n",
       "      <td>25.0</td>\n",
       "      <td>99.26</td>\n",
       "      <td>Rain Showers</td>\n",
       "    </tr>\n",
       "    <tr>\n",
       "      <th>25</th>\n",
       "      <td>1/2/2012 1:00</td>\n",
       "      <td>4.6</td>\n",
       "      <td>0.0</td>\n",
       "      <td>72</td>\n",
       "      <td>39</td>\n",
       "      <td>25.0</td>\n",
       "      <td>99.26</td>\n",
       "      <td>Cloudy</td>\n",
       "    </tr>\n",
       "    <tr>\n",
       "      <th>26</th>\n",
       "      <td>1/2/2012 2:00</td>\n",
       "      <td>3.9</td>\n",
       "      <td>-0.9</td>\n",
       "      <td>71</td>\n",
       "      <td>32</td>\n",
       "      <td>25.0</td>\n",
       "      <td>99.26</td>\n",
       "      <td>Mostly Cloudy</td>\n",
       "    </tr>\n",
       "    <tr>\n",
       "      <th>27</th>\n",
       "      <td>1/2/2012 3:00</td>\n",
       "      <td>3.7</td>\n",
       "      <td>-1.5</td>\n",
       "      <td>69</td>\n",
       "      <td>33</td>\n",
       "      <td>25.0</td>\n",
       "      <td>99.30</td>\n",
       "      <td>Mostly Cloudy</td>\n",
       "    </tr>\n",
       "    <tr>\n",
       "      <th>...</th>\n",
       "      <td>...</td>\n",
       "      <td>...</td>\n",
       "      <td>...</td>\n",
       "      <td>...</td>\n",
       "      <td>...</td>\n",
       "      <td>...</td>\n",
       "      <td>...</td>\n",
       "      <td>...</td>\n",
       "    </tr>\n",
       "    <tr>\n",
       "      <th>8705</th>\n",
       "      <td>12/28/2012 17:00</td>\n",
       "      <td>-8.6</td>\n",
       "      <td>-12.0</td>\n",
       "      <td>76</td>\n",
       "      <td>26</td>\n",
       "      <td>25.0</td>\n",
       "      <td>101.34</td>\n",
       "      <td>Mainly Clear</td>\n",
       "    </tr>\n",
       "    <tr>\n",
       "      <th>8753</th>\n",
       "      <td>12/30/2012 17:00</td>\n",
       "      <td>-12.1</td>\n",
       "      <td>-15.8</td>\n",
       "      <td>74</td>\n",
       "      <td>28</td>\n",
       "      <td>25.0</td>\n",
       "      <td>101.26</td>\n",
       "      <td>Mainly Clear</td>\n",
       "    </tr>\n",
       "    <tr>\n",
       "      <th>8755</th>\n",
       "      <td>12/30/2012 19:00</td>\n",
       "      <td>-13.4</td>\n",
       "      <td>-16.5</td>\n",
       "      <td>77</td>\n",
       "      <td>26</td>\n",
       "      <td>25.0</td>\n",
       "      <td>101.47</td>\n",
       "      <td>Mainly Clear</td>\n",
       "    </tr>\n",
       "    <tr>\n",
       "      <th>8759</th>\n",
       "      <td>12/30/2012 23:00</td>\n",
       "      <td>-12.1</td>\n",
       "      <td>-15.1</td>\n",
       "      <td>78</td>\n",
       "      <td>28</td>\n",
       "      <td>25.0</td>\n",
       "      <td>101.52</td>\n",
       "      <td>Mostly Cloudy</td>\n",
       "    </tr>\n",
       "    <tr>\n",
       "      <th>8760</th>\n",
       "      <td>12/31/2012 0:00</td>\n",
       "      <td>-11.1</td>\n",
       "      <td>-14.4</td>\n",
       "      <td>77</td>\n",
       "      <td>26</td>\n",
       "      <td>25.0</td>\n",
       "      <td>101.51</td>\n",
       "      <td>Cloudy</td>\n",
       "    </tr>\n",
       "  </tbody>\n",
       "</table>\n",
       "<p>308 rows  8 columns</p>\n",
       "</div>"
      ],
      "text/plain": [
       "             Date/Time  Temp_C  Dew Point Temp_C  Rel Hum_%  Wind Speed_km/h  \\\n",
       "23      1/1/2012 23:00     5.3               2.0         79               30   \n",
       "24       1/2/2012 0:00     5.2               1.5         77               35   \n",
       "25       1/2/2012 1:00     4.6               0.0         72               39   \n",
       "26       1/2/2012 2:00     3.9              -0.9         71               32   \n",
       "27       1/2/2012 3:00     3.7              -1.5         69               33   \n",
       "...                ...     ...               ...        ...              ...   \n",
       "8705  12/28/2012 17:00    -8.6             -12.0         76               26   \n",
       "8753  12/30/2012 17:00   -12.1             -15.8         74               28   \n",
       "8755  12/30/2012 19:00   -13.4             -16.5         77               26   \n",
       "8759  12/30/2012 23:00   -12.1             -15.1         78               28   \n",
       "8760   12/31/2012 0:00   -11.1             -14.4         77               26   \n",
       "\n",
       "      Visibility_km  Press_kPa        Weather  \n",
       "23             25.0      99.31         Cloudy  \n",
       "24             25.0      99.26   Rain Showers  \n",
       "25             25.0      99.26         Cloudy  \n",
       "26             25.0      99.26  Mostly Cloudy  \n",
       "27             25.0      99.30  Mostly Cloudy  \n",
       "...             ...        ...            ...  \n",
       "8705           25.0     101.34   Mainly Clear  \n",
       "8753           25.0     101.26   Mainly Clear  \n",
       "8755           25.0     101.47   Mainly Clear  \n",
       "8759           25.0     101.52  Mostly Cloudy  \n",
       "8760           25.0     101.51         Cloudy  \n",
       "\n",
       "[308 rows x 8 columns]"
      ]
     },
     "execution_count": 16,
     "metadata": {},
     "output_type": "execute_result"
    }
   ],
   "source": [
    "# Find the number of records where the wind speed is greater than 24 km/hr and visibility is equal to 25 km.\n",
    "df[(df['Wind Speed_km/h'] > 24 ) & (df['Visibility_km'] == 25)]\n"
   ]
  },
  {
   "cell_type": "code",
   "execution_count": 40,
   "id": "03f55c78-76a9-4b15-8107-d8faca602642",
   "metadata": {},
   "outputs": [
    {
     "name": "stdout",
     "output_type": "stream",
     "text": [
      "\n",
      "mean values for each weather condition:\n",
      "                                            Temp_C  Dew Point Temp_C  \\\n",
      "Weather_Condition                                                      \n",
      "Clear                                     6.825716          0.089367   \n",
      "Cloudy                                    7.970544          2.375810   \n",
      "Drizzle                                   7.353659          5.504878   \n",
      "Drizzle,Fog                               8.067500          7.033750   \n",
      "Drizzle,Ice Pellets,Fog                   0.400000         -0.700000   \n",
      "Drizzle,Snow                              1.050000          0.150000   \n",
      "Drizzle,Snow,Fog                          0.693333          0.120000   \n",
      "Fog                                       4.303333          3.159333   \n",
      "Freezing Drizzle                         -5.657143         -8.000000   \n",
      "Freezing Drizzle,Fog                     -2.533333         -4.183333   \n",
      "Freezing Drizzle,Haze                    -5.433333         -8.000000   \n",
      "Freezing Drizzle,Snow                    -5.109091         -7.072727   \n",
      "Freezing Fog                             -7.575000         -9.250000   \n",
      "Freezing Rain                            -3.885714         -6.078571   \n",
      "Freezing Rain,Fog                        -2.225000         -3.750000   \n",
      "Freezing Rain,Haze                       -4.900000         -7.450000   \n",
      "Freezing Rain,Ice Pellets,Fog            -2.600000         -3.700000   \n",
      "Freezing Rain,Snow Grains                -5.000000         -7.300000   \n",
      "Haze                                     -0.200000         -2.975000   \n",
      "Mainly Clear                             12.558927          4.581671   \n",
      "Moderate Rain,Fog                         1.700000          0.800000   \n",
      "Moderate Snow                            -5.525000         -7.250000   \n",
      "Moderate Snow,Blowing Snow               -5.450000         -6.500000   \n",
      "Mostly Cloudy                            10.574287          3.131174   \n",
      "Rain                                      9.786275          7.042810   \n",
      "Rain Showers                             13.722340          9.187766   \n",
      "Rain Showers,Fog                         12.800000         12.100000   \n",
      "Rain Showers,Snow Showers                 2.150000         -1.500000   \n",
      "Rain,Fog                                  8.273276          7.219828   \n",
      "Rain,Haze                                 4.633333          2.066667   \n",
      "Rain,Ice Pellets                          0.600000         -0.600000   \n",
      "Rain,Snow                                 1.055556         -0.566667   \n",
      "Rain,Snow Grains                          1.900000         -2.100000   \n",
      "Rain,Snow,Fog                             0.800000          0.300000   \n",
      "Rain,Snow,Ice Pellets                     1.100000         -0.175000   \n",
      "Snow                                     -4.524103         -7.623333   \n",
      "Snow Pellets                              0.700000         -6.400000   \n",
      "Snow Showers                             -3.506667         -7.866667   \n",
      "Snow Showers,Fog                        -10.675000        -11.900000   \n",
      "Snow,Blowing Snow                        -5.410526         -7.621053   \n",
      "Snow,Fog                                 -5.075676         -6.364865   \n",
      "Snow,Haze                                -4.020000         -6.860000   \n",
      "Snow,Ice Pellets                         -1.883333         -3.666667   \n",
      "Thunderstorms                            24.150000         19.750000   \n",
      "Thunderstorms,Heavy Rain Showers         10.900000          9.000000   \n",
      "Thunderstorms,Moderate Rain Showers,Fog  19.600000         18.500000   \n",
      "Thunderstorms,Rain                       20.433333         18.533333   \n",
      "Thunderstorms,Rain Showers               20.037500         17.618750   \n",
      "Thunderstorms,Rain Showers,Fog           21.600000         18.700000   \n",
      "Thunderstorms,Rain,Fog                   20.600000         18.600000   \n",
      "\n",
      "                                         Rel Hum_%  Wind Speed_km/h  \\\n",
      "Weather_Condition                                                     \n",
      "Clear                                    64.497738        10.557315   \n",
      "Cloudy                                   69.592593        16.127315   \n",
      "Drizzle                                  88.243902        16.097561   \n",
      "Drizzle,Fog                              93.275000        11.862500   \n",
      "Drizzle,Ice Pellets,Fog                  92.000000        20.000000   \n",
      "Drizzle,Snow                             93.500000        14.000000   \n",
      "Drizzle,Snow,Fog                         95.866667        15.533333   \n",
      "Fog                                      92.286667         7.946667   \n",
      "Freezing Drizzle                         83.571429        16.571429   \n",
      "Freezing Drizzle,Fog                     88.500000        17.000000   \n",
      "Freezing Drizzle,Haze                    82.000000        10.333333   \n",
      "Freezing Drizzle,Snow                    86.090909        16.272727   \n",
      "Freezing Fog                             87.750000         4.750000   \n",
      "Freezing Rain                            84.642857        19.214286   \n",
      "Freezing Rain,Fog                        89.500000        15.500000   \n",
      "Freezing Rain,Haze                       82.500000         7.500000   \n",
      "Freezing Rain,Ice Pellets,Fog            92.000000        28.000000   \n",
      "Freezing Rain,Snow Grains                84.000000        32.000000   \n",
      "Haze                                     81.625000        10.437500   \n",
      "Mainly Clear                             60.667142        14.144824   \n",
      "Moderate Rain,Fog                        94.000000        17.000000   \n",
      "Moderate Snow                            87.750000        33.750000   \n",
      "Moderate Snow,Blowing Snow               92.500000        40.000000   \n",
      "Mostly Cloudy                            62.102465        15.813920   \n",
      "Rain                                     83.624183        19.254902   \n",
      "Rain Showers                             75.159574        17.132979   \n",
      "Rain Showers,Fog                         96.000000        13.000000   \n",
      "Rain Showers,Snow Showers                76.500000        22.500000   \n",
      "Rain,Fog                                 93.189655        14.793103   \n",
      "Rain,Haze                                83.333333        11.666667   \n",
      "Rain,Ice Pellets                         92.000000        24.000000   \n",
      "Rain,Snow                                89.000000        28.388889   \n",
      "Rain,Snow Grains                         75.000000        26.000000   \n",
      "Rain,Snow,Fog                            96.000000         9.000000   \n",
      "Rain,Snow,Ice Pellets                    91.500000        23.250000   \n",
      "Snow                                     79.307692        20.038462   \n",
      "Snow Pellets                             59.000000        35.000000   \n",
      "Snow Showers                             72.350000        19.233333   \n",
      "Snow Showers,Fog                         90.750000        13.750000   \n",
      "Snow,Blowing Snow                        84.473684        34.842105   \n",
      "Snow,Fog                                 90.675676        17.324324   \n",
      "Snow,Haze                                80.600000         5.000000   \n",
      "Snow,Ice Pellets                         87.666667        23.833333   \n",
      "Thunderstorms                            77.000000         7.500000   \n",
      "Thunderstorms,Heavy Rain Showers         88.000000         9.000000   \n",
      "Thunderstorms,Moderate Rain Showers,Fog  93.000000        15.000000   \n",
      "Thunderstorms,Rain                       89.000000        15.666667   \n",
      "Thunderstorms,Rain Showers               86.375000        18.312500   \n",
      "Thunderstorms,Rain Showers,Fog           84.000000        19.666667   \n",
      "Thunderstorms,Rain,Fog                   88.000000        19.000000   \n",
      "\n",
      "                                         Visibility_km   Press_kPa  \n",
      "Weather_Condition                                                   \n",
      "Clear                                        30.153243  101.587443  \n",
      "Cloudy                                       26.625752  100.911441  \n",
      "Drizzle                                      17.931707  100.435366  \n",
      "Drizzle,Fog                                   5.257500  100.786625  \n",
      "Drizzle,Ice Pellets,Fog                       4.000000  100.790000  \n",
      "Drizzle,Snow                                 10.500000  100.890000  \n",
      "Drizzle,Snow,Fog                              5.513333   99.281333  \n",
      "Fog                                           6.248000  101.184067  \n",
      "Freezing Drizzle                              9.200000  100.202857  \n",
      "Freezing Drizzle,Fog                          5.266667  100.441667  \n",
      "Freezing Drizzle,Haze                         2.666667  100.316667  \n",
      "Freezing Drizzle,Snow                         5.872727  100.520909  \n",
      "Freezing Fog                                  0.650000  102.320000  \n",
      "Freezing Rain                                 8.242857   99.647143  \n",
      "Freezing Rain,Fog                             7.550000   99.945000  \n",
      "Freezing Rain,Haze                            2.400000  100.375000  \n",
      "Freezing Rain,Ice Pellets,Fog                 8.000000  100.950000  \n",
      "Freezing Rain,Snow Grains                     4.800000   98.560000  \n",
      "Haze                                          7.831250  101.482500  \n",
      "Mainly Clear                                 34.264862  101.248832  \n",
      "Moderate Rain,Fog                             6.400000   99.980000  \n",
      "Moderate Snow                                 0.750000  100.275000  \n",
      "Moderate Snow,Blowing Snow                    0.600000  100.570000  \n",
      "Mostly Cloudy                                31.253842  101.025288  \n",
      "Rain                                         18.856536  100.233333  \n",
      "Rain Showers                                 22.816489  100.404043  \n",
      "Rain Showers,Fog                              6.400000   99.830000  \n",
      "Rain Showers,Snow Showers                    21.700000  101.100000  \n",
      "Rain,Fog                                      6.873276  100.500862  \n",
      "Rain,Haze                                     6.700000  100.540000  \n",
      "Rain,Ice Pellets                              9.700000  100.120000  \n",
      "Rain,Snow                                    11.672222   99.951111  \n",
      "Rain,Snow Grains                             25.000000  100.600000  \n",
      "Rain,Snow,Fog                                 6.400000  100.730000  \n",
      "Rain,Snow,Ice Pellets                         6.000000  100.105000  \n",
      "Snow                                         11.171795  100.536103  \n",
      "Snow Pellets                                  2.400000   99.700000  \n",
      "Snow Showers                                 20.158333  100.963500  \n",
      "Snow Showers,Fog                              7.025000  101.292500  \n",
      "Snow,Blowing Snow                             4.105263   99.704737  \n",
      "Snow,Fog                                      4.537838  100.688649  \n",
      "Snow,Haze                                     4.640000  100.782000  \n",
      "Snow,Ice Pellets                              7.416667  100.548333  \n",
      "Thunderstorms                                24.550000  100.230000  \n",
      "Thunderstorms,Heavy Rain Showers              2.400000  100.260000  \n",
      "Thunderstorms,Moderate Rain Showers,Fog       3.200000  100.010000  \n",
      "Thunderstorms,Rain                           19.833333  100.420000  \n",
      "Thunderstorms,Rain Showers                   15.893750  100.233750  \n",
      "Thunderstorms,Rain Showers,Fog                9.700000  100.063333  \n",
      "Thunderstorms,Rain,Fog                        4.800000  100.080000  \n"
     ]
    }
   ],
   "source": [
    "#What is the mean value of each column for each weather condition?\n",
    "numeric_cols = df.select_dtypes(include=[np.number]).columns\n",
    "mean_by_weather = df.groupby('Weather_Condition')[numeric_cols].mean()\n",
    "print('\\nmean values for each weather condition:')\n",
    "print(mean_by_weather)"
   ]
  },
  {
   "cell_type": "code",
   "execution_count": 42,
   "id": "632204e2-73c5-4b3c-a3fe-7a73d1914d78",
   "metadata": {},
   "outputs": [
    {
     "data": {
      "text/html": [
       "<div>\n",
       "<style scoped>\n",
       "    .dataframe tbody tr th:only-of-type {\n",
       "        vertical-align: middle;\n",
       "    }\n",
       "\n",
       "    .dataframe tbody tr th {\n",
       "        vertical-align: top;\n",
       "    }\n",
       "\n",
       "    .dataframe thead th {\n",
       "        text-align: right;\n",
       "    }\n",
       "</style>\n",
       "<table border=\"1\" class=\"dataframe\">\n",
       "  <thead>\n",
       "    <tr style=\"text-align: right;\">\n",
       "      <th></th>\n",
       "      <th>Date/Time</th>\n",
       "      <th>Temp_C</th>\n",
       "      <th>Dew Point Temp_C</th>\n",
       "      <th>Rel Hum_%</th>\n",
       "      <th>Wind Speed_km/h</th>\n",
       "      <th>Visibility_km</th>\n",
       "      <th>Press_kPa</th>\n",
       "      <th>Weather_Condition</th>\n",
       "    </tr>\n",
       "  </thead>\n",
       "  <tbody>\n",
       "    <tr>\n",
       "      <th>106</th>\n",
       "      <td>1/5/2012 10:00</td>\n",
       "      <td>-6.0</td>\n",
       "      <td>-10.0</td>\n",
       "      <td>73</td>\n",
       "      <td>17</td>\n",
       "      <td>48.3</td>\n",
       "      <td>100.45</td>\n",
       "      <td>Mainly Clear</td>\n",
       "    </tr>\n",
       "    <tr>\n",
       "      <th>107</th>\n",
       "      <td>1/5/2012 11:00</td>\n",
       "      <td>-5.6</td>\n",
       "      <td>-10.2</td>\n",
       "      <td>70</td>\n",
       "      <td>22</td>\n",
       "      <td>48.3</td>\n",
       "      <td>100.41</td>\n",
       "      <td>Mainly Clear</td>\n",
       "    </tr>\n",
       "    <tr>\n",
       "      <th>108</th>\n",
       "      <td>1/5/2012 12:00</td>\n",
       "      <td>-4.7</td>\n",
       "      <td>-9.6</td>\n",
       "      <td>69</td>\n",
       "      <td>20</td>\n",
       "      <td>48.3</td>\n",
       "      <td>100.38</td>\n",
       "      <td>Mainly Clear</td>\n",
       "    </tr>\n",
       "    <tr>\n",
       "      <th>109</th>\n",
       "      <td>1/5/2012 13:00</td>\n",
       "      <td>-4.4</td>\n",
       "      <td>-9.7</td>\n",
       "      <td>66</td>\n",
       "      <td>26</td>\n",
       "      <td>48.3</td>\n",
       "      <td>100.40</td>\n",
       "      <td>Mainly Clear</td>\n",
       "    </tr>\n",
       "    <tr>\n",
       "      <th>110</th>\n",
       "      <td>1/5/2012 14:00</td>\n",
       "      <td>-5.1</td>\n",
       "      <td>-10.7</td>\n",
       "      <td>65</td>\n",
       "      <td>22</td>\n",
       "      <td>48.3</td>\n",
       "      <td>100.46</td>\n",
       "      <td>Mainly Clear</td>\n",
       "    </tr>\n",
       "    <tr>\n",
       "      <th>...</th>\n",
       "      <td>...</td>\n",
       "      <td>...</td>\n",
       "      <td>...</td>\n",
       "      <td>...</td>\n",
       "      <td>...</td>\n",
       "      <td>...</td>\n",
       "      <td>...</td>\n",
       "      <td>...</td>\n",
       "    </tr>\n",
       "    <tr>\n",
       "      <th>8749</th>\n",
       "      <td>12/30/2012 13:00</td>\n",
       "      <td>-12.4</td>\n",
       "      <td>-16.2</td>\n",
       "      <td>73</td>\n",
       "      <td>37</td>\n",
       "      <td>48.3</td>\n",
       "      <td>100.92</td>\n",
       "      <td>Mostly Cloudy</td>\n",
       "    </tr>\n",
       "    <tr>\n",
       "      <th>8750</th>\n",
       "      <td>12/30/2012 14:00</td>\n",
       "      <td>-11.8</td>\n",
       "      <td>-16.1</td>\n",
       "      <td>70</td>\n",
       "      <td>37</td>\n",
       "      <td>48.3</td>\n",
       "      <td>100.96</td>\n",
       "      <td>Mainly Clear</td>\n",
       "    </tr>\n",
       "    <tr>\n",
       "      <th>8751</th>\n",
       "      <td>12/30/2012 15:00</td>\n",
       "      <td>-11.3</td>\n",
       "      <td>-15.6</td>\n",
       "      <td>70</td>\n",
       "      <td>32</td>\n",
       "      <td>48.3</td>\n",
       "      <td>101.05</td>\n",
       "      <td>Mainly Clear</td>\n",
       "    </tr>\n",
       "    <tr>\n",
       "      <th>8752</th>\n",
       "      <td>12/30/2012 16:00</td>\n",
       "      <td>-11.4</td>\n",
       "      <td>-15.5</td>\n",
       "      <td>72</td>\n",
       "      <td>26</td>\n",
       "      <td>48.3</td>\n",
       "      <td>101.15</td>\n",
       "      <td>Mainly Clear</td>\n",
       "    </tr>\n",
       "    <tr>\n",
       "      <th>8756</th>\n",
       "      <td>12/30/2012 20:00</td>\n",
       "      <td>-13.8</td>\n",
       "      <td>-16.5</td>\n",
       "      <td>80</td>\n",
       "      <td>24</td>\n",
       "      <td>25.0</td>\n",
       "      <td>101.52</td>\n",
       "      <td>Clear</td>\n",
       "    </tr>\n",
       "  </tbody>\n",
       "</table>\n",
       "<p>2921 rows  8 columns</p>\n",
       "</div>"
      ],
      "text/plain": [
       "             Date/Time  Temp_C  Dew Point Temp_C  Rel Hum_%  Wind Speed_km/h  \\\n",
       "106     1/5/2012 10:00    -6.0             -10.0         73               17   \n",
       "107     1/5/2012 11:00    -5.6             -10.2         70               22   \n",
       "108     1/5/2012 12:00    -4.7              -9.6         69               20   \n",
       "109     1/5/2012 13:00    -4.4              -9.7         66               26   \n",
       "110     1/5/2012 14:00    -5.1             -10.7         65               22   \n",
       "...                ...     ...               ...        ...              ...   \n",
       "8749  12/30/2012 13:00   -12.4             -16.2         73               37   \n",
       "8750  12/30/2012 14:00   -11.8             -16.1         70               37   \n",
       "8751  12/30/2012 15:00   -11.3             -15.6         70               32   \n",
       "8752  12/30/2012 16:00   -11.4             -15.5         72               26   \n",
       "8756  12/30/2012 20:00   -13.8             -16.5         80               24   \n",
       "\n",
       "      Visibility_km  Press_kPa Weather_Condition  \n",
       "106            48.3     100.45      Mainly Clear  \n",
       "107            48.3     100.41      Mainly Clear  \n",
       "108            48.3     100.38      Mainly Clear  \n",
       "109            48.3     100.40      Mainly Clear  \n",
       "110            48.3     100.46      Mainly Clear  \n",
       "...             ...        ...               ...  \n",
       "8749           48.3     100.92     Mostly Cloudy  \n",
       "8750           48.3     100.96      Mainly Clear  \n",
       "8751           48.3     101.05      Mainly Clear  \n",
       "8752           48.3     101.15      Mainly Clear  \n",
       "8756           25.0     101.52             Clear  \n",
       "\n",
       "[2921 rows x 8 columns]"
      ]
     },
     "execution_count": 42,
     "metadata": {},
     "output_type": "execute_result"
    }
   ],
   "source": [
    "#Find all instances where the weather is clear and the relative humidity is greater than 50, or visibility is above 40.\n",
    "df[((df['Weather_Condition'] == 'Clear') & (df['Rel Hum_%'] > 50)) | (df['Visibility_km'] > 40)]"
   ]
  },
  {
   "cell_type": "code",
   "execution_count": 53,
   "id": "11544732-4ae5-4bb6-ae08-a3695df8288e",
   "metadata": {},
   "outputs": [
    {
     "name": "stdout",
     "output_type": "stream",
     "text": [
      "583\n"
     ]
    }
   ],
   "source": [
    "#Find the number of weather conditions that include snow.\n",
    "snow_count = df['Weather_Condition'].str.contains('snow', case= False).sum()\n",
    "print(snow_count)"
   ]
  },
  {
   "cell_type": "code",
   "execution_count": null,
   "id": "6489260d-b76d-4aea-afa1-57efea9f3764",
   "metadata": {},
   "outputs": [],
   "source": []
  }
 ],
 "metadata": {
  "kernelspec": {
   "display_name": "Python 3 (ipykernel)",
   "language": "python",
   "name": "python3"
  },
  "language_info": {
   "codemirror_mode": {
    "name": "ipython",
    "version": 3
   },
   "file_extension": ".py",
   "mimetype": "text/x-python",
   "name": "python",
   "nbconvert_exporter": "python",
   "pygments_lexer": "ipython3",
   "version": "3.11.7"
  }
 },
 "nbformat": 4,
 "nbformat_minor": 5
}
